<?xml version="1.0" encoding="UTF-8"?>
<gpx creator="StravaGPX" version="1.1" xmlns="http://www.topografix.com/GPX/1/1" xmlns:xsi="http://www.w3.org/2001/XMLSchema-instance" xsi:schemaLocation="http://www.topografix.com/GPX/1/1 http://www.topografix.com/GPX/1/1/gpx.xsd">
 <metadata>
  <name>dobsons</name>
  <author>
   <name>Callum Mallett</name>
   <link href="https://www.strava.com/athletes/48058415"/>
  </author>
  <copyright author="OpenStreetMap contributors">
   <year>2020</year>
   <license>https://www.openstreetmap.org/copyright</license>
  </copyright>
  <link href="https://www.strava.com/routes/3539892350872461362"/>
 </metadata>
 <trk>
  <name>dobsons</name>
  <link href="https://www.strava.com/routes/3539892350872461362"/>
  <type>running</type>
  <trkseg>
   <trkpt lat="-41.07529" lon="175.22805000000002">
    <ele>242.46</ele>
   </trkpt>
   <trkpt lat="-41.07526" lon="175.22823000000002">
    <ele>244.4</ele>
   </trkpt>
   <trkpt lat="-41.075210000000006" lon="175.22832000000002">
    <ele>244.4</ele>
   </trkpt>
   <trkpt lat="-41.07497" lon="175.22826">
    <ele>248.85000000000002</ele>
   </trkpt>
   <trkpt lat="-41.07486" lon="175.22829000000002">
    <ele>248.85000000000002</ele>
   </trkpt>
   <trkpt lat="-41.07479" lon="175.22843">
    <ele>250.93000000000004</ele>
   </trkpt>
   <trkpt lat="-41.07475" lon="175.22873">
    <ele>253.64000000000001</ele>
   </trkpt>
   <trkpt lat="-41.07468" lon="175.22894000000002">
    <ele>256.26000000000005</ele>
   </trkpt>
   <trkpt lat="-41.07457" lon="175.22914">
    <ele>261.22</ele>
   </trkpt>
   <trkpt lat="-41.07448" lon="175.22940000000003">
    <ele>263.0</ele>
   </trkpt>
   <trkpt lat="-41.07435" lon="175.22965000000002">
    <ele>268.82</ele>
   </trkpt>
   <trkpt lat="-41.07423" lon="175.22977">
    <ele>271.42</ele>
   </trkpt>
   <trkpt lat="-41.0741" lon="175.22995">
    <ele>273.2</ele>
   </trkpt>
   <trkpt lat="-41.07406" lon="175.23007">
    <ele>273.19000000000005</ele>
   </trkpt>
   <trkpt lat="-41.07403" lon="175.23030000000003">
    <ele>274.08000000000004</ele>
   </trkpt>
   <trkpt lat="-41.07385" lon="175.23063000000002">
    <ele>277.97</ele>
   </trkpt>
   <trkpt lat="-41.07372" lon="175.23074000000003">
    <ele>280.77000000000004</ele>
   </trkpt>
   <trkpt lat="-41.07363" lon="175.23074000000003">
    <ele>282.96999999999997</ele>
   </trkpt>
   <trkpt lat="-41.07359" lon="175.23065000000003">
    <ele>284.86</ele>
   </trkpt>
   <trkpt lat="-41.07367" lon="175.23034">
    <ele>289.31</ele>
   </trkpt>
   <trkpt lat="-41.073600000000006" lon="175.23026000000002">
    <ele>293.28000000000003</ele>
   </trkpt>
   <trkpt lat="-41.07345" lon="175.23034">
    <ele>297.82000000000005</ele>
   </trkpt>
   <trkpt lat="-41.07334" lon="175.23018000000002">
    <ele>300.34000000000003</ele>
   </trkpt>
   <trkpt lat="-41.07332" lon="175.23004">
    <ele>302.34</ele>
   </trkpt>
   <trkpt lat="-41.07336" lon="175.22997">
    <ele>302.34</ele>
   </trkpt>
   <trkpt lat="-41.07334" lon="175.22987">
    <ele>305.18</ele>
   </trkpt>
   <trkpt lat="-41.07334" lon="175.2297">
    <ele>305.96</ele>
   </trkpt>
   <trkpt lat="-41.07325" lon="175.22969">
    <ele>308.66</ele>
   </trkpt>
   <trkpt lat="-41.0732" lon="175.22958000000003">
    <ele>310.34</ele>
   </trkpt>
   <trkpt lat="-41.07314" lon="175.22954000000001">
    <ele>311.06</ele>
   </trkpt>
   <trkpt lat="-41.07296" lon="175.22956000000002">
    <ele>313.34</ele>
   </trkpt>
   <trkpt lat="-41.072860000000006" lon="175.2296">
    <ele>313.86</ele>
   </trkpt>
   <trkpt lat="-41.07267" lon="175.22959">
    <ele>314.55000000000007</ele>
   </trkpt>
   <trkpt lat="-41.07249" lon="175.22971">
    <ele>318.0</ele>
   </trkpt>
   <trkpt lat="-41.07238" lon="175.22976000000003">
    <ele>322.84000000000003</ele>
   </trkpt>
   <trkpt lat="-41.0722" lon="175.22999000000002">
    <ele>330.20000000000005</ele>
   </trkpt>
   <trkpt lat="-41.07202" lon="175.23014">
    <ele>334.83</ele>
   </trkpt>
   <trkpt lat="-41.07193" lon="175.23028000000002">
    <ele>337.58000000000004</ele>
   </trkpt>
   <trkpt lat="-41.07157" lon="175.23053000000002">
    <ele>348.67</ele>
   </trkpt>
   <trkpt lat="-41.0715" lon="175.23068">
    <ele>350.79</ele>
   </trkpt>
   <trkpt lat="-41.07139" lon="175.23063000000002">
    <ele>352.08</ele>
   </trkpt>
   <trkpt lat="-41.07101" lon="175.23093">
    <ele>350.71000000000004</ele>
   </trkpt>
   <trkpt lat="-41.07068" lon="175.23127000000002">
    <ele>350.55</ele>
   </trkpt>
   <trkpt lat="-41.070510000000006" lon="175.23147">
    <ele>351.18000000000006</ele>
   </trkpt>
   <trkpt lat="-41.07034" lon="175.2322">
    <ele>355.76</ele>
   </trkpt>
   <trkpt lat="-41.07034" lon="175.23247">
    <ele>359.82</ele>
   </trkpt>
   <trkpt lat="-41.07047" lon="175.23276">
    <ele>364.46</ele>
   </trkpt>
   <trkpt lat="-41.07043" lon="175.23293">
    <ele>367.62</ele>
   </trkpt>
   <trkpt lat="-41.07025" lon="175.2331">
    <ele>369.35</ele>
   </trkpt>
   <trkpt lat="-41.07029" lon="175.23339">
    <ele>377.08000000000004</ele>
   </trkpt>
   <trkpt lat="-41.0702" lon="175.23353">
    <ele>378.78</ele>
   </trkpt>
   <trkpt lat="-41.07023" lon="175.23363">
    <ele>380.08000000000004</ele>
   </trkpt>
   <trkpt lat="-41.07014" lon="175.23388000000003">
    <ele>381.51</ele>
   </trkpt>
   <trkpt lat="-41.07014" lon="175.23420000000002">
    <ele>384.40000000000003</ele>
   </trkpt>
   <trkpt lat="-41.07023" lon="175.23449000000002">
    <ele>388.11</ele>
   </trkpt>
   <trkpt lat="-41.07023" lon="175.23463">
    <ele>388.62</ele>
   </trkpt>
   <trkpt lat="-41.07005" lon="175.23489">
    <ele>390.87000000000006</ele>
   </trkpt>
   <trkpt lat="-41.070040000000006" lon="175.23499">
    <ele>390.87000000000006</ele>
   </trkpt>
   <trkpt lat="-41.07023" lon="175.23523">
    <ele>393.83</ele>
   </trkpt>
   <trkpt lat="-41.07038" lon="175.23537000000002">
    <ele>394.8</ele>
   </trkpt>
   <trkpt lat="-41.07041" lon="175.23548000000002">
    <ele>395.11</ele>
   </trkpt>
   <trkpt lat="-41.07034" lon="175.23558000000003">
    <ele>395.35</ele>
   </trkpt>
   <trkpt lat="-41.06998" lon="175.23604">
    <ele>397.05</ele>
   </trkpt>
   <trkpt lat="-41.06996" lon="175.23613">
    <ele>397.42</ele>
   </trkpt>
   <trkpt lat="-41.07003" lon="175.23623">
    <ele>397.95000000000005</ele>
   </trkpt>
   <trkpt lat="-41.070330000000006" lon="175.23631">
    <ele>399.19000000000005</ele>
   </trkpt>
   <trkpt lat="-41.070420000000006" lon="175.23641">
    <ele>400.28000000000003</ele>
   </trkpt>
   <trkpt lat="-41.07041" lon="175.23652">
    <ele>401.46000000000004</ele>
   </trkpt>
   <trkpt lat="-41.07025" lon="175.23682000000002">
    <ele>405.61</ele>
   </trkpt>
   <trkpt lat="-41.07018" lon="175.23723">
    <ele>408.09</ele>
   </trkpt>
   <trkpt lat="-41.07014" lon="175.23732">
    <ele>408.24000000000007</ele>
   </trkpt>
   <trkpt lat="-41.07018" lon="175.23755000000003">
    <ele>409.53000000000003</ele>
   </trkpt>
   <trkpt lat="-41.07014" lon="175.23769000000001">
    <ele>411.57000000000005</ele>
   </trkpt>
   <trkpt lat="-41.07014" lon="175.23801">
    <ele>413.62000000000006</ele>
   </trkpt>
   <trkpt lat="-41.0702" lon="175.23802">
    <ele>413.92</ele>
   </trkpt>
   <trkpt lat="-41.07038" lon="175.23792">
    <ele>415.63000000000005</ele>
   </trkpt>
   <trkpt lat="-41.0707" lon="175.23791000000003">
    <ele>418.94</ele>
   </trkpt>
   <trkpt lat="-41.07076" lon="175.23793">
    <ele>419.90000000000003</ele>
   </trkpt>
   <trkpt lat="-41.070800000000006" lon="175.23804">
    <ele>420.94000000000005</ele>
   </trkpt>
   <trkpt lat="-41.07079" lon="175.23808000000002">
    <ele>420.94000000000005</ele>
   </trkpt>
   <trkpt lat="-41.070750000000004" lon="175.23811">
    <ele>422.04</ele>
   </trkpt>
   <trkpt lat="-41.07061" lon="175.23809000000003">
    <ele>425.69</ele>
   </trkpt>
   <trkpt lat="-41.07061" lon="175.23822">
    <ele>429.48</ele>
   </trkpt>
   <trkpt lat="-41.07043" lon="175.23825000000002">
    <ele>433.12000000000006</ele>
   </trkpt>
   <trkpt lat="-41.07036" lon="175.23837">
    <ele>437.21000000000004</ele>
   </trkpt>
   <trkpt lat="-41.07034" lon="175.23851000000002">
    <ele>439.77000000000004</ele>
   </trkpt>
   <trkpt lat="-41.07038" lon="175.23851000000002">
    <ele>440.83000000000004</ele>
   </trkpt>
   <trkpt lat="-41.07041" lon="175.23860000000002">
    <ele>442.78000000000003</ele>
   </trkpt>
   <trkpt lat="-41.07027" lon="175.23878000000002">
    <ele>448.99000000000007</ele>
   </trkpt>
   <trkpt lat="-41.07018" lon="175.23882">
    <ele>450.25000000000006</ele>
   </trkpt>
   <trkpt lat="-41.069950000000006" lon="175.23956">
    <ele>466.20000000000005</ele>
   </trkpt>
   <trkpt lat="-41.069860000000006" lon="175.23932000000002">
    <ele>468.65</ele>
   </trkpt>
   <trkpt lat="-41.06978" lon="175.23938">
    <ele>470.38</ele>
   </trkpt>
   <trkpt lat="-41.06967" lon="175.23937">
    <ele>473.19000000000005</ele>
   </trkpt>
   <trkpt lat="-41.06953" lon="175.23944">
    <ele>476.34000000000003</ele>
   </trkpt>
   <trkpt lat="-41.069100000000006" lon="175.23961000000003">
    <ele>482.46000000000004</ele>
   </trkpt>
   <trkpt lat="-41.06895" lon="175.23960000000002">
    <ele>484.24000000000007</ele>
   </trkpt>
   <trkpt lat="-41.06882" lon="175.24019">
    <ele>492.77000000000004</ele>
   </trkpt>
   <trkpt lat="-41.06877" lon="175.24061">
    <ele>499.50000000000006</ele>
   </trkpt>
   <trkpt lat="-41.06877" lon="175.24108">
    <ele>508.90000000000003</ele>
   </trkpt>
   <trkpt lat="-41.06873" lon="175.24127000000001">
    <ele>511.24</ele>
   </trkpt>
   <trkpt lat="-41.06857" lon="175.24135">
    <ele>512.85</ele>
   </trkpt>
   <trkpt lat="-41.06846" lon="175.24135">
    <ele>513.66</ele>
   </trkpt>
   <trkpt lat="-41.06828" lon="175.24140000000003">
    <ele>515.03</ele>
   </trkpt>
   <trkpt lat="-41.06803" lon="175.24158000000003">
    <ele>517.1300000000001</ele>
   </trkpt>
   <trkpt lat="-41.06794" lon="175.24159">
    <ele>517.86</ele>
   </trkpt>
   <trkpt lat="-41.06783" lon="175.24153">
    <ele>518.84</ele>
   </trkpt>
   <trkpt lat="-41.06768" lon="175.24155000000002">
    <ele>519.22</ele>
   </trkpt>
   <trkpt lat="-41.067" lon="175.24152">
    <ele>514.4300000000001</ele>
   </trkpt>
   <trkpt lat="-41.06671" lon="175.24154000000001">
    <ele>513.0400000000001</ele>
   </trkpt>
   <trkpt lat="-41.06656" lon="175.24159">
    <ele>512.48</ele>
   </trkpt>
   <trkpt lat="-41.06642" lon="175.2416">
    <ele>512.14</ele>
   </trkpt>
   <trkpt lat="-41.06638" lon="175.24163000000001">
    <ele>511.51</ele>
   </trkpt>
   <trkpt lat="-41.06638" lon="175.24174000000002">
    <ele>511.51</ele>
   </trkpt>
   <trkpt lat="-41.06631" lon="175.24186">
    <ele>510.9600000000001</ele>
   </trkpt>
   <trkpt lat="-41.0662" lon="175.24229000000003">
    <ele>509.01000000000005</ele>
   </trkpt>
   <trkpt lat="-41.06613" lon="175.24242">
    <ele>508.31</ele>
   </trkpt>
   <trkpt lat="-41.066100000000006" lon="175.24258">
    <ele>507.04</ele>
   </trkpt>
   <trkpt lat="-41.06606" lon="175.24263000000002">
    <ele>506.53000000000003</ele>
   </trkpt>
   <trkpt lat="-41.06597" lon="175.24267">
    <ele>504.89000000000004</ele>
   </trkpt>
   <trkpt lat="-41.06582" lon="175.24286">
    <ele>503.21000000000004</ele>
   </trkpt>
   <trkpt lat="-41.06575" lon="175.24288">
    <ele>502.9100000000001</ele>
   </trkpt>
   <trkpt lat="-41.06564" lon="175.24295">
    <ele>502.32</ele>
   </trkpt>
   <trkpt lat="-41.06537" lon="175.24326000000002">
    <ele>503.43</ele>
   </trkpt>
   <trkpt lat="-41.06537" lon="175.24333000000001">
    <ele>504.41</ele>
   </trkpt>
   <trkpt lat="-41.065160000000006" lon="175.24355000000003">
    <ele>505.77000000000004</ele>
   </trkpt>
   <trkpt lat="-41.06499" lon="175.24353000000002">
    <ele>506.06000000000006</ele>
   </trkpt>
   <trkpt lat="-41.06492" lon="175.24357">
    <ele>506.97999999999996</ele>
   </trkpt>
   <trkpt lat="-41.06483" lon="175.24376">
    <ele>509.4700000000001</ele>
   </trkpt>
   <trkpt lat="-41.0647" lon="175.24380000000002">
    <ele>511.81</ele>
   </trkpt>
   <trkpt lat="-41.06445" lon="175.24404">
    <ele>516.75</ele>
   </trkpt>
   <trkpt lat="-41.06436" lon="175.24403">
    <ele>517.0</ele>
   </trkpt>
   <trkpt lat="-41.06423" lon="175.24409000000003">
    <ele>517.14</ele>
   </trkpt>
   <trkpt lat="-41.06414" lon="175.24407000000002">
    <ele>517.09</ele>
   </trkpt>
   <trkpt lat="-41.06405" lon="175.24415000000002">
    <ele>517.29</ele>
   </trkpt>
   <trkpt lat="-41.06386000149202" lon="175.24473500165064">
    <ele>518.75</ele>
   </trkpt>
   <trkpt lat="-41.06367" lon="175.24532000000002">
    <ele>523.51</ele>
   </trkpt>
   <trkpt lat="-41.06356" lon="175.24539000000001">
    <ele>523.24</ele>
   </trkpt>
   <trkpt lat="-41.06344" lon="175.24534000000003">
    <ele>521.36</ele>
   </trkpt>
   <trkpt lat="-41.06329" lon="175.24539000000001">
    <ele>519.0100000000001</ele>
   </trkpt>
   <trkpt lat="-41.06313" lon="175.24551000000002">
    <ele>516.15</ele>
   </trkpt>
   <trkpt lat="-41.06306" lon="175.24562">
    <ele>514.98</ele>
   </trkpt>
   <trkpt lat="-41.063010000000006" lon="175.24564">
    <ele>514.98</ele>
   </trkpt>
   <trkpt lat="-41.06275" lon="175.24559000000002">
    <ele>510.2300000000001</ele>
   </trkpt>
   <trkpt lat="-41.06268" lon="175.24552000000003">
    <ele>509.58000000000004</ele>
   </trkpt>
   <trkpt lat="-41.06257" lon="175.24551000000002">
    <ele>509.33000000000004</ele>
   </trkpt>
   <trkpt lat="-41.06244" lon="175.24562">
    <ele>510.13000000000005</ele>
   </trkpt>
   <trkpt lat="-41.06228" lon="175.24566000000002">
    <ele>511.49</ele>
   </trkpt>
   <trkpt lat="-41.06219" lon="175.2458">
    <ele>511.49</ele>
   </trkpt>
   <trkpt lat="-41.06197" lon="175.24598">
    <ele>508.84000000000003</ele>
   </trkpt>
   <trkpt lat="-41.06186" lon="175.24609">
    <ele>506.70000000000005</ele>
   </trkpt>
   <trkpt lat="-41.06174" lon="175.24652">
    <ele>501.33000000000004</ele>
   </trkpt>
   <trkpt lat="-41.061460000000004" lon="175.24676000000002">
    <ele>500.34</ele>
   </trkpt>
   <trkpt lat="-41.06145" lon="175.24686000000003">
    <ele>500.48</ele>
   </trkpt>
   <trkpt lat="-41.06123" lon="175.247">
    <ele>500.84000000000003</ele>
   </trkpt>
   <trkpt lat="-41.06105" lon="175.24705">
    <ele>500.97</ele>
   </trkpt>
   <trkpt lat="-41.06103" lon="175.24709000000001">
    <ele>500.97</ele>
   </trkpt>
   <trkpt lat="-41.06069" lon="175.24710000000002">
    <ele>502.75</ele>
   </trkpt>
   <trkpt lat="-41.0606" lon="175.24721000000002">
    <ele>502.81000000000006</ele>
   </trkpt>
   <trkpt lat="-41.06049" lon="175.24726">
    <ele>503.0300000000001</ele>
   </trkpt>
   <trkpt lat="-41.06047" lon="175.24736000000001">
    <ele>503.55000000000007</ele>
   </trkpt>
   <trkpt lat="-41.06047" lon="175.24749000000003">
    <ele>504.53999999999996</ele>
   </trkpt>
   <trkpt lat="-41.06033" lon="175.24774000000002">
    <ele>506.21999999999997</ele>
   </trkpt>
   <trkpt lat="-41.06004000215966" lon="175.24845000317734">
    <ele>512.93</ele>
   </trkpt>
   <trkpt lat="-41.05975" lon="175.24916000000002">
    <ele>521.07</ele>
   </trkpt>
   <trkpt lat="-41.05964" lon="175.24925000000002">
    <ele>522.9200000000001</ele>
   </trkpt>
   <trkpt lat="-41.059070000140174" lon="175.2493450008064">
    <ele>521.22</ele>
   </trkpt>
   <trkpt lat="-41.0585" lon="175.24944000000002">
    <ele>526.5300000000001</ele>
   </trkpt>
   <trkpt lat="-41.05814" lon="175.24959">
    <ele>522.85</ele>
   </trkpt>
   <trkpt lat="-41.05805" lon="175.24968">
    <ele>519.99</ele>
   </trkpt>
   <trkpt lat="-41.05798" lon="175.24994">
    <ele>518.08</ele>
   </trkpt>
   <trkpt lat="-41.05771" lon="175.25065">
    <ele>519.21</ele>
   </trkpt>
   <trkpt lat="-41.057460000000006" lon="175.25103000000001">
    <ele>525.84</ele>
   </trkpt>
   <trkpt lat="-41.056900000000006" lon="175.25162">
    <ele>525.45</ele>
   </trkpt>
   <trkpt lat="-41.05664" lon="175.25183">
    <ele>528.2900000000001</ele>
   </trkpt>
   <trkpt lat="-41.056520000000006" lon="175.25251">
    <ele>540.0200000000001</ele>
   </trkpt>
   <trkpt lat="-41.0563" lon="175.2526">
    <ele>545.61</ele>
   </trkpt>
   <trkpt lat="-41.05619" lon="175.25314">
    <ele>552.96</ele>
   </trkpt>
   <trkpt lat="-41.0561" lon="175.25337000000002">
    <ele>555.5500000000001</ele>
   </trkpt>
   <trkpt lat="-41.05601" lon="175.25348000000002">
    <ele>555.2900000000001</ele>
   </trkpt>
   <trkpt lat="-41.05577" lon="175.25392000000002">
    <ele>559.09</ele>
   </trkpt>
   <trkpt lat="-41.05548" lon="175.25418000000002">
    <ele>566.0500000000001</ele>
   </trkpt>
   <trkpt lat="-41.05462" lon="175.2545">
    <ele>578.76</ele>
   </trkpt>
   <trkpt lat="-41.054280000000006" lon="175.25518000000002">
    <ele>592.8500000000001</ele>
   </trkpt>
   <trkpt lat="-41.05351" lon="175.25532">
    <ele>609.57</ele>
   </trkpt>
   <trkpt lat="-41.05283" lon="175.25564000000003">
    <ele>611.0000000000001</ele>
   </trkpt>
   <trkpt lat="-41.0527" lon="175.25583">
    <ele>611.5600000000001</ele>
   </trkpt>
   <trkpt lat="-41.05268" lon="175.256">
    <ele>611.5200000000001</ele>
   </trkpt>
   <trkpt lat="-41.05243" lon="175.25611">
    <ele>611.5400000000001</ele>
   </trkpt>
   <trkpt lat="-41.05232" lon="175.2563">
    <ele>610.16</ele>
   </trkpt>
   <trkpt lat="-41.05232" lon="175.25644000000003">
    <ele>609.5500000000001</ele>
   </trkpt>
   <trkpt lat="-41.05218" lon="175.25671000000003">
    <ele>609.2800000000001</ele>
   </trkpt>
   <trkpt lat="-41.05207" lon="175.25686000000002">
    <ele>609.62</ele>
   </trkpt>
   <trkpt lat="-41.05198" lon="175.25739000000002">
    <ele>610.92</ele>
   </trkpt>
   <trkpt lat="-41.05178" lon="175.25761000000003">
    <ele>615.2200000000001</ele>
   </trkpt>
   <trkpt lat="-41.05145" lon="175.25773">
    <ele>622.61</ele>
   </trkpt>
   <trkpt lat="-41.05129" lon="175.2579">
    <ele>624.97</ele>
   </trkpt>
   <trkpt lat="-41.05104" lon="175.25801">
    <ele>630.47</ele>
   </trkpt>
   <trkpt lat="-41.05037" lon="175.25820000000002">
    <ele>645.21</ele>
   </trkpt>
   <trkpt lat="-41.05033" lon="175.25825">
    <ele>645.61</ele>
   </trkpt>
   <trkpt lat="-41.0501" lon="175.25835">
    <ele>646.19</ele>
   </trkpt>
   <trkpt lat="-41.04977" lon="175.25830000000002">
    <ele>651.07</ele>
   </trkpt>
   <trkpt lat="-41.04961" lon="175.25834">
    <ele>653.08</ele>
   </trkpt>
   <trkpt lat="-41.04932" lon="175.25853">
    <ele>650.87</ele>
   </trkpt>
   <trkpt lat="-41.0491" lon="175.25873">
    <ele>647.69</ele>
   </trkpt>
   <trkpt lat="-41.04889" lon="175.25884000000002">
    <ele>646.37</ele>
   </trkpt>
   <trkpt lat="-41.04885" lon="175.25903000000002">
    <ele>645.69</ele>
   </trkpt>
   <trkpt lat="-41.04885" lon="175.25918000000001">
    <ele>644.66</ele>
   </trkpt>
   <trkpt lat="-41.04885" lon="175.25919000000002">
    <ele>644.73</ele>
   </trkpt>
   <trkpt lat="-41.04867" lon="175.25955000000002">
    <ele>644.78</ele>
   </trkpt>
   <trkpt lat="-41.04867" lon="175.2596">
    <ele>643.87</ele>
   </trkpt>
   <trkpt lat="-41.04874" lon="175.25979">
    <ele>640.35</ele>
   </trkpt>
   <trkpt lat="-41.04892" lon="175.25992000000002">
    <ele>633.1300000000001</ele>
   </trkpt>
   <trkpt lat="-41.04907" lon="175.26011000000003">
    <ele>627.38</ele>
   </trkpt>
   <trkpt lat="-41.0491" lon="175.26047000000003">
    <ele>623.0100000000001</ele>
   </trkpt>
   <trkpt lat="-41.04912" lon="175.2607">
    <ele>617.53</ele>
   </trkpt>
   <trkpt lat="-41.04894" lon="175.26122">
    <ele>612.0000000000001</ele>
   </trkpt>
   <trkpt lat="-41.04887" lon="175.26212">
    <ele>612.6600000000001</ele>
   </trkpt>
   <trkpt lat="-41.04887" lon="175.26257">
    <ele>620.2500000000001</ele>
   </trkpt>
   <trkpt lat="-41.04878" lon="175.26321000000002">
    <ele>635.1500000000001</ele>
   </trkpt>
   <trkpt lat="-41.04858" lon="175.26402000000002">
    <ele>634.5400000000001</ele>
   </trkpt>
   <trkpt lat="-41.04842" lon="175.26436">
    <ele>633.5400000000001</ele>
   </trkpt>
   <trkpt lat="-41.04838" lon="175.26468000000003">
    <ele>632.35</ele>
   </trkpt>
   <trkpt lat="-41.04822" lon="175.26501000000002">
    <ele>629.4200000000001</ele>
   </trkpt>
   <trkpt lat="-41.04847" lon="175.26538000000002">
    <ele>620.92</ele>
   </trkpt>
   <trkpt lat="-41.04907" lon="175.26608000000002">
    <ele>593.5400000000001</ele>
   </trkpt>
   <trkpt lat="-41.049400000000006" lon="175.26681000000002">
    <ele>574.97</ele>
   </trkpt>
   <trkpt lat="-41.049495001626" lon="175.26742999887418">
    <ele>565.1</ele>
   </trkpt>
   <trkpt lat="-41.04959" lon="175.26805000000002">
    <ele>547.13</ele>
   </trkpt>
   <trkpt lat="-41.0497" lon="175.26854">
    <ele>537.73</ele>
   </trkpt>
   <trkpt lat="-41.04974" lon="175.26885000000001">
    <ele>528.96</ele>
   </trkpt>
   <trkpt lat="-41.05006" lon="175.26952000000003">
    <ele>505.56</ele>
   </trkpt>
   <trkpt lat="-41.05048500050269" lon="175.26977499848584">
    <ele>486.53000000000003</ele>
   </trkpt>
   <trkpt lat="-41.05091" lon="175.27003000000002">
    <ele>469.68</ele>
   </trkpt>
   <trkpt lat="-41.0512" lon="175.27026">
    <ele>455.98</ele>
   </trkpt>
   <trkpt lat="-41.05122" lon="175.27036">
    <ele>455.98</ele>
   </trkpt>
   <trkpt lat="-41.05176" lon="175.27128000000002">
    <ele>424.96000000000004</ele>
   </trkpt>
   <trkpt lat="-41.05207" lon="175.27159">
    <ele>414.0</ele>
   </trkpt>
   <trkpt lat="-41.052475000526904" lon="175.27193499788683">
    <ele>392.01</ele>
   </trkpt>
   <trkpt lat="-41.05288" lon="175.27228000000002">
    <ele>373.41</ele>
   </trkpt>
   <trkpt lat="-41.05321" lon="175.27265000000003">
    <ele>354.71000000000004</ele>
   </trkpt>
   <trkpt lat="-41.053580001369525" lon="175.27319499706115">
    <ele>341.05</ele>
   </trkpt>
   <trkpt lat="-41.05395" lon="175.27374">
    <ele>325.84000000000003</ele>
   </trkpt>
   <trkpt lat="-41.05430000159655" lon="175.27434999673426">
    <ele>302.96</ele>
   </trkpt>
   <trkpt lat="-41.05465" lon="175.27496000000002">
    <ele>278.36</ele>
   </trkpt>
   <trkpt lat="-41.05485" lon="175.27562">
    <ele>257.96000000000004</ele>
   </trkpt>
   <trkpt lat="-41.05456" lon="175.27646000000001">
    <ele>226.23000000000002</ele>
   </trkpt>
   <trkpt lat="-41.054550000000006" lon="175.27701000000002">
    <ele>207.19</ele>
   </trkpt>
   <trkpt lat="-41.05463" lon="175.27729000000002">
    <ele>198.61</ele>
   </trkpt>
   <trkpt lat="-41.054640000000006" lon="175.27729000000002">
    <ele>198.46</ele>
   </trkpt>
   <trkpt lat="-41.05512" lon="175.27671">
    <ele>199.27</ele>
   </trkpt>
   <trkpt lat="-41.05565" lon="175.27648000000002">
    <ele>205.12000000000003</ele>
   </trkpt>
   <trkpt lat="-41.05583" lon="175.27618">
    <ele>206.95000000000002</ele>
   </trkpt>
   <trkpt lat="-41.05588" lon="175.2759">
    <ele>207.36</ele>
   </trkpt>
   <trkpt lat="-41.05579" lon="175.27557000000002">
    <ele>208.31000000000003</ele>
   </trkpt>
   <trkpt lat="-41.05579" lon="175.27525000000003">
    <ele>209.04</ele>
   </trkpt>
   <trkpt lat="-41.05604" lon="175.27477000000002">
    <ele>210.70000000000002</ele>
   </trkpt>
   <trkpt lat="-41.05608" lon="175.27439">
    <ele>211.63</ele>
   </trkpt>
   <trkpt lat="-41.05619" lon="175.27404">
    <ele>211.9</ele>
   </trkpt>
   <trkpt lat="-41.05628" lon="175.27365">
    <ele>212.14000000000001</ele>
   </trkpt>
   <trkpt lat="-41.05644" lon="175.27324000000002">
    <ele>213.27</ele>
   </trkpt>
   <trkpt lat="-41.05677" lon="175.27277">
    <ele>216.75000000000003</ele>
   </trkpt>
   <trkpt lat="-41.05682" lon="175.27242">
    <ele>219.06</ele>
   </trkpt>
   <trkpt lat="-41.05675" lon="175.27233">
    <ele>223.44000000000003</ele>
   </trkpt>
   <trkpt lat="-41.05666" lon="175.27197">
    <ele>227.54000000000002</ele>
   </trkpt>
   <trkpt lat="-41.05664" lon="175.27138000000002">
    <ele>225.36</ele>
   </trkpt>
   <trkpt lat="-41.05673" lon="175.27144">
    <ele>221.37</ele>
   </trkpt>
   <trkpt lat="-41.05677" lon="175.27155000000002">
    <ele>219.03000000000003</ele>
   </trkpt>
   <trkpt lat="-41.05693" lon="175.2715">
    <ele>217.09</ele>
   </trkpt>
   <trkpt lat="-41.05704" lon="175.27153">
    <ele>216.70000000000002</ele>
   </trkpt>
   <trkpt lat="-41.05706" lon="175.27161">
    <ele>216.43</ele>
   </trkpt>
   <trkpt lat="-41.05713" lon="175.27162">
    <ele>216.3</ele>
   </trkpt>
   <trkpt lat="-41.05733" lon="175.27148000000003">
    <ele>216.83</ele>
   </trkpt>
   <trkpt lat="-41.05749" lon="175.27132">
    <ele>219.83</ele>
   </trkpt>
   <trkpt lat="-41.0576" lon="175.27076000000002">
    <ele>222.76000000000002</ele>
   </trkpt>
   <trkpt lat="-41.05756" lon="175.27049000000002">
    <ele>223.19000000000003</ele>
   </trkpt>
   <trkpt lat="-41.05787" lon="175.26966000000002">
    <ele>224.77</ele>
   </trkpt>
   <trkpt lat="-41.05792" lon="175.26928">
    <ele>225.14000000000001</ele>
   </trkpt>
   <trkpt lat="-41.05818" lon="175.26858000000001">
    <ele>229.14000000000001</ele>
   </trkpt>
   <trkpt lat="-41.05852" lon="175.26828">
    <ele>229.91000000000003</ele>
   </trkpt>
   <trkpt lat="-41.0589" lon="175.26813">
    <ele>231.24000000000004</ele>
   </trkpt>
   <trkpt lat="-41.05944" lon="175.26768">
    <ele>239.15000000000003</ele>
   </trkpt>
   <trkpt lat="-41.059810000000006" lon="175.26725000000002">
    <ele>242.68</ele>
   </trkpt>
   <trkpt lat="-41.06" lon="175.26685">
    <ele>249.28000000000003</ele>
   </trkpt>
   <trkpt lat="-41.05997" lon="175.26656000000003">
    <ele>253.54999999999998</ele>
   </trkpt>
   <trkpt lat="-41.05971" lon="175.26599000000002">
    <ele>262.23</ele>
   </trkpt>
   <trkpt lat="-41.05953" lon="175.26549000000003">
    <ele>268.31000000000006</ele>
   </trkpt>
   <trkpt lat="-41.05964" lon="175.26523">
    <ele>270.21</ele>
   </trkpt>
   <trkpt lat="-41.05995" lon="175.26502000000002">
    <ele>269.02000000000004</ele>
   </trkpt>
   <trkpt lat="-41.06062" lon="175.26424">
    <ele>261.62</ele>
   </trkpt>
   <trkpt lat="-41.06062" lon="175.26399">
    <ele>261.97</ele>
   </trkpt>
   <trkpt lat="-41.06076" lon="175.2639">
    <ele>261.81000000000006</ele>
   </trkpt>
   <trkpt lat="-41.06085" lon="175.26361000000003">
    <ele>259.65000000000003</ele>
   </trkpt>
   <trkpt lat="-41.06107" lon="175.26335">
    <ele>256.59999999999997</ele>
   </trkpt>
   <trkpt lat="-41.06136" lon="175.26311">
    <ele>254.51000000000002</ele>
   </trkpt>
   <trkpt lat="-41.06163" lon="175.26305000000002">
    <ele>256.17</ele>
   </trkpt>
   <trkpt lat="-41.06181" lon="175.26294000000001">
    <ele>257.99</ele>
   </trkpt>
   <trkpt lat="-41.06186" lon="175.26265">
    <ele>260.72</ele>
   </trkpt>
   <trkpt lat="-41.06179" lon="175.26249">
    <ele>261.44</ele>
   </trkpt>
   <trkpt lat="-41.06192" lon="175.26215000000002">
    <ele>264.76</ele>
   </trkpt>
   <trkpt lat="-41.06268" lon="175.26167">
    <ele>267.69000000000005</ele>
   </trkpt>
   <trkpt lat="-41.06302" lon="175.26156">
    <ele>265.44</ele>
   </trkpt>
   <trkpt lat="-41.06318" lon="175.26146000000003">
    <ele>264.3</ele>
   </trkpt>
   <trkpt lat="-41.0632" lon="175.26118000000002">
    <ele>262.81000000000006</ele>
   </trkpt>
   <trkpt lat="-41.06344" lon="175.26080000000002">
    <ele>264.06</ele>
   </trkpt>
   <trkpt lat="-41.063570000000006" lon="175.26054000000002">
    <ele>264.89</ele>
   </trkpt>
   <trkpt lat="-41.0636" lon="175.26037000000002">
    <ele>264.91</ele>
   </trkpt>
   <trkpt lat="-41.06353" lon="175.26025">
    <ele>265.53000000000003</ele>
   </trkpt>
   <trkpt lat="-41.06351" lon="175.25984000000003">
    <ele>269.87</ele>
   </trkpt>
   <trkpt lat="-41.06353" lon="175.25959">
    <ele>274.46000000000004</ele>
   </trkpt>
   <trkpt lat="-41.06369" lon="175.25940000000003">
    <ele>278.01000000000005</ele>
   </trkpt>
   <trkpt lat="-41.06398" lon="175.25856000000002">
    <ele>288.08</ele>
   </trkpt>
   <trkpt lat="-41.064310000000006" lon="175.25811000000002">
    <ele>298.07</ele>
   </trkpt>
   <trkpt lat="-41.06452" lon="175.25785000000002">
    <ele>295.18</ele>
   </trkpt>
   <trkpt lat="-41.0647" lon="175.25792">
    <ele>294.22</ele>
   </trkpt>
   <trkpt lat="-41.06503" lon="175.25776000000002">
    <ele>296.18</ele>
   </trkpt>
   <trkpt lat="-41.06526" lon="175.25747">
    <ele>297.67</ele>
   </trkpt>
   <trkpt lat="-41.0655" lon="175.25730000000001">
    <ele>295.64</ele>
   </trkpt>
   <trkpt lat="-41.06582" lon="175.25698000000003">
    <ele>296.58</ele>
   </trkpt>
   <trkpt lat="-41.06611" lon="175.25688000000002">
    <ele>293.11</ele>
   </trkpt>
   <trkpt lat="-41.06649" lon="175.25691">
    <ele>289.90000000000003</ele>
   </trkpt>
   <trkpt lat="-41.06662" lon="175.25648">
    <ele>289.57000000000005</ele>
   </trkpt>
   <trkpt lat="-41.06682" lon="175.25646">
    <ele>293.58</ele>
   </trkpt>
   <trkpt lat="-41.06734" lon="175.25603">
    <ele>300.86</ele>
   </trkpt>
   <trkpt lat="-41.06765" lon="175.25568">
    <ele>301.6</ele>
   </trkpt>
   <trkpt lat="-41.06763" lon="175.25534000000002">
    <ele>302.41</ele>
   </trkpt>
   <trkpt lat="-41.06781" lon="175.25531">
    <ele>303.43</ele>
   </trkpt>
   <trkpt lat="-41.068135000674076" lon="175.2548700023951">
    <ele>302.93</ele>
   </trkpt>
   <trkpt lat="-41.06846" lon="175.25443">
    <ele>302.04</ele>
   </trkpt>
   <trkpt lat="-41.06888" lon="175.25375000000003">
    <ele>304.71000000000004</ele>
   </trkpt>
   <trkpt lat="-41.06911" lon="175.25347000000002">
    <ele>304.56</ele>
   </trkpt>
   <trkpt lat="-41.06944" lon="175.25293000000002">
    <ele>297.62000000000006</ele>
   </trkpt>
   <trkpt lat="-41.07005" lon="175.25256000000002">
    <ele>301.6</ele>
   </trkpt>
   <trkpt lat="-41.07018" lon="175.25244">
    <ele>308.15000000000003</ele>
   </trkpt>
   <trkpt lat="-41.07023" lon="175.25220000000002">
    <ele>312.42</ele>
   </trkpt>
   <trkpt lat="-41.07014" lon="175.25206">
    <ele>316.1</ele>
   </trkpt>
   <trkpt lat="-41.07027" lon="175.25197000000003">
    <ele>319.17</ele>
   </trkpt>
   <trkpt lat="-41.070510000000006" lon="175.25194000000002">
    <ele>327.07</ele>
   </trkpt>
   <trkpt lat="-41.07052" lon="175.25179000000003">
    <ele>330.96000000000004</ele>
   </trkpt>
   <trkpt lat="-41.070330000000006" lon="175.25153">
    <ele>332.85</ele>
   </trkpt>
   <trkpt lat="-41.07061" lon="175.25135">
    <ele>342.22</ele>
   </trkpt>
   <trkpt lat="-41.0707" lon="175.25113000000002">
    <ele>346.6</ele>
   </trkpt>
   <trkpt lat="-41.07085" lon="175.25082">
    <ele>353.64</ele>
   </trkpt>
   <trkpt lat="-41.07076" lon="175.25083">
    <ele>355.39000000000004</ele>
   </trkpt>
   <trkpt lat="-41.07065" lon="175.25079000000002">
    <ele>358.46000000000004</ele>
   </trkpt>
   <trkpt lat="-41.070910000000005" lon="175.25038">
    <ele>365.99</ele>
   </trkpt>
   <trkpt lat="-41.070980000000006" lon="175.25017000000003">
    <ele>374.02000000000004</ele>
   </trkpt>
   <trkpt lat="-41.07088" lon="175.25001">
    <ele>379.92</ele>
   </trkpt>
   <trkpt lat="-41.0709" lon="175.24988000000002">
    <ele>379.92</ele>
   </trkpt>
   <trkpt lat="-41.07103" lon="175.24980000000002">
    <ele>383.94000000000005</ele>
   </trkpt>
   <trkpt lat="-41.07117" lon="175.24967">
    <ele>386.62</ele>
   </trkpt>
   <trkpt lat="-41.07128" lon="175.24969000000002">
    <ele>388.0</ele>
   </trkpt>
   <trkpt lat="-41.07137" lon="175.24966">
    <ele>388.0</ele>
   </trkpt>
   <trkpt lat="-41.07146" lon="175.24948">
    <ele>392.53000000000003</ele>
   </trkpt>
   <trkpt lat="-41.07155" lon="175.24941">
    <ele>393.19000000000005</ele>
   </trkpt>
   <trkpt lat="-41.07155" lon="175.24933000000001">
    <ele>394.40000000000003</ele>
   </trkpt>
   <trkpt lat="-41.0717" lon="175.24904">
    <ele>400.89000000000004</ele>
   </trkpt>
   <trkpt lat="-41.07173" lon="175.24890000000002">
    <ele>400.89000000000004</ele>
   </trkpt>
   <trkpt lat="-41.07166" lon="175.24876">
    <ele>404.23</ele>
   </trkpt>
   <trkpt lat="-41.07164" lon="175.24861">
    <ele>406.16</ele>
   </trkpt>
   <trkpt lat="-41.07168" lon="175.24855000000002">
    <ele>406.16</ele>
   </trkpt>
   <trkpt lat="-41.07179" lon="175.24863000000002">
    <ele>410.38</ele>
   </trkpt>
   <trkpt lat="-41.07184" lon="175.2486">
    <ele>411.36000000000007</ele>
   </trkpt>
   <trkpt lat="-41.07184" lon="175.24849">
    <ele>411.36000000000007</ele>
   </trkpt>
   <trkpt lat="-41.07188" lon="175.24837000000002">
    <ele>415.85</ele>
   </trkpt>
   <trkpt lat="-41.07202" lon="175.24820000000003">
    <ele>418.95000000000005</ele>
   </trkpt>
   <trkpt lat="-41.07206" lon="175.24790000000002">
    <ele>420.78000000000003</ele>
   </trkpt>
   <trkpt lat="-41.07206" lon="175.24767000000003">
    <ele>422.45000000000005</ele>
   </trkpt>
   <trkpt lat="-41.07211" lon="175.24753">
    <ele>422.97</ele>
   </trkpt>
   <trkpt lat="-41.0722" lon="175.24749000000003">
    <ele>423.2</ele>
   </trkpt>
   <trkpt lat="-41.072320000000005" lon="175.24733">
    <ele>423.55</ele>
   </trkpt>
   <trkpt lat="-41.072300000000006" lon="175.24735">
    <ele>423.58</ele>
   </trkpt>
   <trkpt lat="-41.07235" lon="175.24727000000001">
    <ele>423.58</ele>
   </trkpt>
   <trkpt lat="-41.07256" lon="175.24720000000002">
    <ele>424.59000000000003</ele>
   </trkpt>
   <trkpt lat="-41.0726" lon="175.24688">
    <ele>426.41</ele>
   </trkpt>
   <trkpt lat="-41.07258" lon="175.24671">
    <ele>428.03000000000003</ele>
   </trkpt>
   <trkpt lat="-41.0726" lon="175.24657000000002">
    <ele>428.99</ele>
   </trkpt>
   <trkpt lat="-41.07267" lon="175.24647000000002">
    <ele>430.3</ele>
   </trkpt>
   <trkpt lat="-41.072770000000006" lon="175.24641000000003">
    <ele>430.76000000000005</ele>
   </trkpt>
   <trkpt lat="-41.0728" lon="175.24627">
    <ele>432.20000000000005</ele>
   </trkpt>
   <trkpt lat="-41.07287" lon="175.24623000000003">
    <ele>433.01000000000005</ele>
   </trkpt>
   <trkpt lat="-41.072950000000006" lon="175.24624">
    <ele>433.32000000000005</ele>
   </trkpt>
   <trkpt lat="-41.07303" lon="175.24622000000002">
    <ele>433.89000000000004</ele>
   </trkpt>
   <trkpt lat="-41.07303" lon="175.24606000000003">
    <ele>435.14000000000004</ele>
   </trkpt>
   <trkpt lat="-41.07305" lon="175.24595000000002">
    <ele>435.50000000000006</ele>
   </trkpt>
   <trkpt lat="-41.07309" lon="175.24589">
    <ele>436.33000000000004</ele>
   </trkpt>
   <trkpt lat="-41.0732" lon="175.24585000000002">
    <ele>436.8</ele>
   </trkpt>
   <trkpt lat="-41.07325" lon="175.24566000000002">
    <ele>439.29</ele>
   </trkpt>
   <trkpt lat="-41.0732" lon="175.24549000000002">
    <ele>440.49000000000007</ele>
   </trkpt>
   <trkpt lat="-41.07325" lon="175.24529">
    <ele>441.43000000000006</ele>
   </trkpt>
   <trkpt lat="-41.07334" lon="175.24519">
    <ele>442.16</ele>
   </trkpt>
   <trkpt lat="-41.07343" lon="175.24493">
    <ele>444.05000000000007</ele>
   </trkpt>
   <trkpt lat="-41.07361" lon="175.24469000000002">
    <ele>445.98</ele>
   </trkpt>
   <trkpt lat="-41.07379" lon="175.24469000000002">
    <ele>447.01</ele>
   </trkpt>
   <trkpt lat="-41.0739" lon="175.24457">
    <ele>447.75</ele>
   </trkpt>
   <trkpt lat="-41.07394" lon="175.24445">
    <ele>448.36</ele>
   </trkpt>
   <trkpt lat="-41.073890000000006" lon="175.24428">
    <ele>449.38000000000005</ele>
   </trkpt>
   <trkpt lat="-41.073890000000006" lon="175.24406000000002">
    <ele>450.56</ele>
   </trkpt>
   <trkpt lat="-41.073980000000006" lon="175.24385">
    <ele>451.99000000000007</ele>
   </trkpt>
   <trkpt lat="-41.07417" lon="175.24363000000002">
    <ele>453.32000000000005</ele>
   </trkpt>
   <trkpt lat="-41.07437" lon="175.24360000000001">
    <ele>453.59000000000003</ele>
   </trkpt>
   <trkpt lat="-41.07446" lon="175.24349">
    <ele>453.29</ele>
   </trkpt>
   <trkpt lat="-41.07446" lon="175.24336000000002">
    <ele>453.67</ele>
   </trkpt>
   <trkpt lat="-41.074540000000006" lon="175.24327000000002">
    <ele>454.11</ele>
   </trkpt>
   <trkpt lat="-41.07455" lon="175.24290000000002">
    <ele>455.81000000000006</ele>
   </trkpt>
   <trkpt lat="-41.07448" lon="175.24268">
    <ele>457.13000000000005</ele>
   </trkpt>
   <trkpt lat="-41.07432" lon="175.24274000000003">
    <ele>458.19000000000005</ele>
   </trkpt>
   <trkpt lat="-41.07408" lon="175.24268">
    <ele>460.86</ele>
   </trkpt>
   <trkpt lat="-41.073910000000005" lon="175.24246000000002">
    <ele>462.38</ele>
   </trkpt>
   <trkpt lat="-41.0739" lon="175.24243">
    <ele>462.38</ele>
   </trkpt>
   <trkpt lat="-41.073800000000006" lon="175.2424">
    <ele>462.11</ele>
   </trkpt>
   <trkpt lat="-41.07356" lon="175.24208000000002">
    <ele>459.96000000000004</ele>
   </trkpt>
   <trkpt lat="-41.07341" lon="175.24210000000002">
    <ele>458.99000000000007</ele>
   </trkpt>
   <trkpt lat="-41.07334" lon="175.24196">
    <ele>458.99000000000007</ele>
   </trkpt>
   <trkpt lat="-41.07336" lon="175.24168">
    <ele>456.11</ele>
   </trkpt>
   <trkpt lat="-41.07262" lon="175.24144">
    <ele>445.28</ele>
   </trkpt>
   <trkpt lat="-41.07267" lon="175.24065000000002">
    <ele>444.83000000000004</ele>
   </trkpt>
   <trkpt lat="-41.07287" lon="175.24006000000003">
    <ele>442.89000000000004</ele>
   </trkpt>
   <trkpt lat="-41.07278" lon="175.23981">
    <ele>440.69</ele>
   </trkpt>
   <trkpt lat="-41.07278" lon="175.23951000000002">
    <ele>438.54</ele>
   </trkpt>
   <trkpt lat="-41.07298" lon="175.2392">
    <ele>437.07</ele>
   </trkpt>
   <trkpt lat="-41.07303" lon="175.2391">
    <ele>436.27000000000004</ele>
   </trkpt>
   <trkpt lat="-41.07298" lon="175.23884">
    <ele>434.16</ele>
   </trkpt>
   <trkpt lat="-41.07291" lon="175.23879000000002">
    <ele>433.22</ele>
   </trkpt>
   <trkpt lat="-41.07267" lon="175.2389">
    <ele>430.69</ele>
   </trkpt>
   <trkpt lat="-41.07249" lon="175.23894">
    <ele>428.96</ele>
   </trkpt>
   <trkpt lat="-41.07226" lon="175.23884">
    <ele>427.44000000000005</ele>
   </trkpt>
   <trkpt lat="-41.07213" lon="175.23888000000002">
    <ele>427.38000000000005</ele>
   </trkpt>
   <trkpt lat="-41.07202" lon="175.23901">
    <ele>427.25</ele>
   </trkpt>
   <trkpt lat="-41.07193" lon="175.2392">
    <ele>426.65000000000003</ele>
   </trkpt>
   <trkpt lat="-41.07184" lon="175.23953">
    <ele>425.31</ele>
   </trkpt>
   <trkpt lat="-41.07164" lon="175.23951000000002">
    <ele>426.31</ele>
   </trkpt>
   <trkpt lat="-41.07148" lon="175.23936">
    <ele>426.64</ele>
   </trkpt>
   <trkpt lat="-41.07117" lon="175.23928">
    <ele>428.22</ele>
   </trkpt>
   <trkpt lat="-41.07108" lon="175.23902">
    <ele>429.56000000000006</ele>
   </trkpt>
   <trkpt lat="-41.0709" lon="175.23899">
    <ele>429.08</ele>
   </trkpt>
   <trkpt lat="-41.07081" lon="175.23903">
    <ele>428.84000000000003</ele>
   </trkpt>
   <trkpt lat="-41.0707" lon="175.23914000000002">
    <ele>428.6</ele>
   </trkpt>
   <trkpt lat="-41.07043" lon="175.23921">
    <ele>428.23</ele>
   </trkpt>
   <trkpt lat="-41.07045" lon="175.23898000000003">
    <ele>429.74</ele>
   </trkpt>
   <trkpt lat="-41.07059" lon="175.23874">
    <ele>428.61</ele>
   </trkpt>
   <trkpt lat="-41.0707" lon="175.23825000000002">
    <ele>423.06000000000006</ele>
   </trkpt>
   <trkpt lat="-41.070750000000004" lon="175.23811">
    <ele>422.04</ele>
   </trkpt>
   <trkpt lat="-41.07079" lon="175.23808000000002">
    <ele>420.94000000000005</ele>
   </trkpt>
   <trkpt lat="-41.070800000000006" lon="175.23804">
    <ele>420.94000000000005</ele>
   </trkpt>
   <trkpt lat="-41.07076" lon="175.23793">
    <ele>419.90000000000003</ele>
   </trkpt>
   <trkpt lat="-41.0707" lon="175.23791000000003">
    <ele>418.94</ele>
   </trkpt>
   <trkpt lat="-41.07038" lon="175.23792">
    <ele>415.63000000000005</ele>
   </trkpt>
   <trkpt lat="-41.0702" lon="175.23802">
    <ele>413.92</ele>
   </trkpt>
   <trkpt lat="-41.07014" lon="175.23801">
    <ele>413.62000000000006</ele>
   </trkpt>
   <trkpt lat="-41.07014" lon="175.23769000000001">
    <ele>411.57000000000005</ele>
   </trkpt>
   <trkpt lat="-41.07018" lon="175.23755000000003">
    <ele>409.53000000000003</ele>
   </trkpt>
   <trkpt lat="-41.07014" lon="175.23732">
    <ele>408.09</ele>
   </trkpt>
   <trkpt lat="-41.07018" lon="175.23723">
    <ele>407.89000000000004</ele>
   </trkpt>
   <trkpt lat="-41.07025" lon="175.23682000000002">
    <ele>405.61</ele>
   </trkpt>
   <trkpt lat="-41.07041" lon="175.23652">
    <ele>401.46000000000004</ele>
   </trkpt>
   <trkpt lat="-41.070420000000006" lon="175.23641">
    <ele>400.28000000000003</ele>
   </trkpt>
   <trkpt lat="-41.070330000000006" lon="175.23631">
    <ele>399.19000000000005</ele>
   </trkpt>
   <trkpt lat="-41.07003" lon="175.23623">
    <ele>397.95000000000005</ele>
   </trkpt>
   <trkpt lat="-41.06996" lon="175.23613">
    <ele>397.42</ele>
   </trkpt>
   <trkpt lat="-41.06998" lon="175.23604">
    <ele>397.05</ele>
   </trkpt>
   <trkpt lat="-41.07034" lon="175.23558000000003">
    <ele>395.3</ele>
   </trkpt>
   <trkpt lat="-41.07041" lon="175.23548000000002">
    <ele>395.11</ele>
   </trkpt>
   <trkpt lat="-41.07038" lon="175.23537000000002">
    <ele>394.8</ele>
   </trkpt>
   <trkpt lat="-41.07023" lon="175.23523">
    <ele>393.83</ele>
   </trkpt>
   <trkpt lat="-41.070040000000006" lon="175.23499">
    <ele>390.87000000000006</ele>
   </trkpt>
   <trkpt lat="-41.07005" lon="175.23489">
    <ele>390.12</ele>
   </trkpt>
   <trkpt lat="-41.07023" lon="175.23463">
    <ele>388.11</ele>
   </trkpt>
   <trkpt lat="-41.07023" lon="175.23449000000002">
    <ele>388.11</ele>
   </trkpt>
   <trkpt lat="-41.07014" lon="175.23420000000002">
    <ele>384.40000000000003</ele>
   </trkpt>
   <trkpt lat="-41.07014" lon="175.23388000000003">
    <ele>381.51</ele>
   </trkpt>
   <trkpt lat="-41.07023" lon="175.23363">
    <ele>380.08000000000004</ele>
   </trkpt>
   <trkpt lat="-41.0702" lon="175.23353">
    <ele>378.78</ele>
   </trkpt>
   <trkpt lat="-41.07029" lon="175.23339">
    <ele>377.08000000000004</ele>
   </trkpt>
   <trkpt lat="-41.07025" lon="175.2331">
    <ele>369.35</ele>
   </trkpt>
   <trkpt lat="-41.07043" lon="175.23293">
    <ele>367.62</ele>
   </trkpt>
   <trkpt lat="-41.07047" lon="175.23276">
    <ele>364.46</ele>
   </trkpt>
   <trkpt lat="-41.07034" lon="175.23247">
    <ele>358.91</ele>
   </trkpt>
   <trkpt lat="-41.07034" lon="175.2322">
    <ele>355.76</ele>
   </trkpt>
   <trkpt lat="-41.070510000000006" lon="175.23147">
    <ele>351.18000000000006</ele>
   </trkpt>
   <trkpt lat="-41.07068" lon="175.23127000000002">
    <ele>350.55</ele>
   </trkpt>
   <trkpt lat="-41.07101" lon="175.23093">
    <ele>350.71000000000004</ele>
   </trkpt>
   <trkpt lat="-41.07139" lon="175.23063000000002">
    <ele>352.08</ele>
   </trkpt>
   <trkpt lat="-41.0715" lon="175.23068">
    <ele>349.87</ele>
   </trkpt>
   <trkpt lat="-41.07157" lon="175.23053000000002">
    <ele>344.35</ele>
   </trkpt>
   <trkpt lat="-41.07193" lon="175.23028000000002">
    <ele>337.58000000000004</ele>
   </trkpt>
   <trkpt lat="-41.07202" lon="175.23014">
    <ele>334.83</ele>
   </trkpt>
   <trkpt lat="-41.0722" lon="175.22999000000002">
    <ele>330.20000000000005</ele>
   </trkpt>
   <trkpt lat="-41.07238" lon="175.22976000000003">
    <ele>322.84000000000003</ele>
   </trkpt>
   <trkpt lat="-41.07249" lon="175.22971">
    <ele>318.0</ele>
   </trkpt>
   <trkpt lat="-41.07267" lon="175.22959">
    <ele>314.21999999999997</ele>
   </trkpt>
   <trkpt lat="-41.072860000000006" lon="175.2296">
    <ele>313.86</ele>
   </trkpt>
   <trkpt lat="-41.07296" lon="175.22956000000002">
    <ele>313.34</ele>
   </trkpt>
   <trkpt lat="-41.07314" lon="175.22954000000001">
    <ele>311.06</ele>
   </trkpt>
   <trkpt lat="-41.0732" lon="175.22958000000003">
    <ele>309.54</ele>
   </trkpt>
   <trkpt lat="-41.07325" lon="175.22969">
    <ele>306.82000000000005</ele>
   </trkpt>
   <trkpt lat="-41.07334" lon="175.2297">
    <ele>305.96</ele>
   </trkpt>
   <trkpt lat="-41.07334" lon="175.22987">
    <ele>305.18</ele>
   </trkpt>
   <trkpt lat="-41.07336" lon="175.22997">
    <ele>302.34</ele>
   </trkpt>
   <trkpt lat="-41.07332" lon="175.23004">
    <ele>302.34</ele>
   </trkpt>
   <trkpt lat="-41.07334" lon="175.23018000000002">
    <ele>299.61</ele>
   </trkpt>
   <trkpt lat="-41.07345" lon="175.23034">
    <ele>295.69</ele>
   </trkpt>
   <trkpt lat="-41.073600000000006" lon="175.23026000000002">
    <ele>293.28000000000003</ele>
   </trkpt>
   <trkpt lat="-41.07367" lon="175.23034">
    <ele>289.31</ele>
   </trkpt>
   <trkpt lat="-41.07359" lon="175.23065000000003">
    <ele>283.99</ele>
   </trkpt>
   <trkpt lat="-41.07363" lon="175.23074000000003">
    <ele>282.96999999999997</ele>
   </trkpt>
   <trkpt lat="-41.07372" lon="175.23074000000003">
    <ele>280.77000000000004</ele>
   </trkpt>
   <trkpt lat="-41.07385" lon="175.23063000000002">
    <ele>277.27000000000004</ele>
   </trkpt>
   <trkpt lat="-41.07403" lon="175.23030000000003">
    <ele>273.69000000000005</ele>
   </trkpt>
   <trkpt lat="-41.07406" lon="175.23007">
    <ele>273.19000000000005</ele>
   </trkpt>
   <trkpt lat="-41.0741" lon="175.22995">
    <ele>273.13000000000005</ele>
   </trkpt>
   <trkpt lat="-41.07423" lon="175.22977">
    <ele>271.42</ele>
   </trkpt>
   <trkpt lat="-41.07435" lon="175.22965000000002">
    <ele>268.82</ele>
   </trkpt>
   <trkpt lat="-41.07448" lon="175.22940000000003">
    <ele>263.0</ele>
   </trkpt>
   <trkpt lat="-41.07457" lon="175.22914">
    <ele>261.22</ele>
   </trkpt>
   <trkpt lat="-41.07468" lon="175.22894000000002">
    <ele>255.54000000000005</ele>
   </trkpt>
   <trkpt lat="-41.07475" lon="175.22873">
    <ele>253.64000000000001</ele>
   </trkpt>
   <trkpt lat="-41.07479" lon="175.22843">
    <ele>250.93000000000004</ele>
   </trkpt>
   <trkpt lat="-41.07486" lon="175.22829000000002">
    <ele>248.85000000000002</ele>
   </trkpt>
   <trkpt lat="-41.07497" lon="175.22826">
    <ele>248.85000000000002</ele>
   </trkpt>
   <trkpt lat="-41.075210000000006" lon="175.22832000000002">
    <ele>244.4</ele>
   </trkpt>
   <trkpt lat="-41.07526" lon="175.22823000000002">
    <ele>243.38</ele>
   </trkpt>
   <trkpt lat="-41.07529" lon="175.22805000000002">
    <ele>242.46</ele>
   </trkpt>
  </trkseg>
 </trk>
</gpx>
