<?xml version="1.0" encoding="UTF-8"?>
<gpx creator="StravaGPX" version="1.1" xmlns="http://www.topografix.com/GPX/1/1" xmlns:xsi="http://www.w3.org/2001/XMLSchema-instance" xsi:schemaLocation="http://www.topografix.com/GPX/1/1 http://www.topografix.com/GPX/1/1/gpx.xsd">
 <metadata>
  <name>East Whakanui</name>
  <author>
   <name>Callum Mallett</name>
   <link href="https://www.strava.com/athletes/48058415"/>
  </author>
  <copyright author="OpenStreetMap contributors">
   <year>2020</year>
   <license>https://www.openstreetmap.org/copyright</license>
  </copyright>
  <link href="https://www.strava.com/routes/3539895748351322052"/>
 </metadata>
 <trk>
  <name>East Whakanui</name>
  <link href="https://www.strava.com/routes/3539895748351322052"/>
  <type>running</type>
  <trkseg>
   <trkpt lat="-41.27633" lon="174.96972000000002">
    <ele>100.85000000000001</ele>
   </trkpt>
   <trkpt lat="-41.27667" lon="174.96975">
    <ele>101.65</ele>
   </trkpt>
   <trkpt lat="-41.27693" lon="174.96981000000002">
    <ele>102.71000000000001</ele>
   </trkpt>
   <trkpt lat="-41.27747" lon="174.96970000000002">
    <ele>112.14</ele>
   </trkpt>
   <trkpt lat="-41.277800000000006" lon="174.96966">
    <ele>116.92</ele>
   </trkpt>
   <trkpt lat="-41.277820000000006" lon="174.96966">
    <ele>117.25</ele>
   </trkpt>
   <trkpt lat="-41.278090000000006" lon="174.96964000000003">
    <ele>117.48000000000002</ele>
   </trkpt>
   <trkpt lat="-41.27877" lon="174.96961000000002">
    <ele>125.41000000000003</ele>
   </trkpt>
   <trkpt lat="-41.27913" lon="174.96967">
    <ele>130.81</ele>
   </trkpt>
   <trkpt lat="-41.27970000008515" lon="174.96956500091017">
    <ele>122.88000000000001</ele>
   </trkpt>
   <trkpt lat="-41.28027" lon="174.96946000000003">
    <ele>129.39000000000001</ele>
   </trkpt>
   <trkpt lat="-41.28081" lon="174.96945000000002">
    <ele>135.89000000000001</ele>
   </trkpt>
   <trkpt lat="-41.28108" lon="174.96939">
    <ele>137.83</ele>
   </trkpt>
   <trkpt lat="-41.281560000000006" lon="174.96955000000003">
    <ele>151.81</ele>
   </trkpt>
   <trkpt lat="-41.281940000000006" lon="174.96995">
    <ele>162.78</ele>
   </trkpt>
   <trkpt lat="-41.28235" lon="174.96994">
    <ele>161.59</ele>
   </trkpt>
   <trkpt lat="-41.28284" lon="174.97016000000002">
    <ele>170.89000000000001</ele>
   </trkpt>
   <trkpt lat="-41.28307" lon="174.97018000000003">
    <ele>174.8</ele>
   </trkpt>
   <trkpt lat="-41.28309" lon="174.9702">
    <ele>174.8</ele>
   </trkpt>
   <trkpt lat="-41.28309" lon="174.97021">
    <ele>174.8</ele>
   </trkpt>
   <trkpt lat="-41.28336" lon="174.97048">
    <ele>182.74</ele>
   </trkpt>
   <trkpt lat="-41.28363" lon="174.97094">
    <ele>193.09</ele>
   </trkpt>
   <trkpt lat="-41.28385" lon="174.97159000000002">
    <ele>203.36</ele>
   </trkpt>
   <trkpt lat="-41.28443" lon="174.97162">
    <ele>214.82</ele>
   </trkpt>
   <trkpt lat="-41.28477" lon="174.97221000000002">
    <ele>233.57000000000002</ele>
   </trkpt>
   <trkpt lat="-41.28504500150212" lon="174.97278499772642">
    <ele>247.23000000000002</ele>
   </trkpt>
   <trkpt lat="-41.285320000000006" lon="174.97336">
    <ele>260.01</ele>
   </trkpt>
   <trkpt lat="-41.28528" lon="174.97382000000002">
    <ele>272.40000000000003</ele>
   </trkpt>
   <trkpt lat="-41.28486" lon="174.97434">
    <ele>285.82</ele>
   </trkpt>
   <trkpt lat="-41.28513" lon="174.97474000000003">
    <ele>293.18000000000006</ele>
   </trkpt>
   <trkpt lat="-41.28508" lon="174.97561000000002">
    <ele>308.91</ele>
   </trkpt>
   <trkpt lat="-41.28546000186743" lon="174.97628499588453">
    <ele>327.32</ele>
   </trkpt>
   <trkpt lat="-41.28584" lon="174.97696000000002">
    <ele>338.41</ele>
   </trkpt>
   <trkpt lat="-41.2862" lon="174.97709">
    <ele>346.69000000000005</ele>
   </trkpt>
   <trkpt lat="-41.28649" lon="174.97751000000002">
    <ele>347.96000000000004</ele>
   </trkpt>
   <trkpt lat="-41.28705" lon="174.97824000000003">
    <ele>356.94000000000005</ele>
   </trkpt>
   <trkpt lat="-41.2872750020064" lon="174.97890999788055">
    <ele>370.29</ele>
   </trkpt>
   <trkpt lat="-41.2875" lon="174.97958000000003">
    <ele>387.57</ele>
   </trkpt>
   <trkpt lat="-41.287850000000006" lon="174.98018000000002">
    <ele>404.04</ele>
   </trkpt>
   <trkpt lat="-41.288340000000005" lon="174.98048000000003">
    <ele>422.55</ele>
   </trkpt>
   <trkpt lat="-41.288140000000006" lon="174.98155000000003">
    <ele>450.18</ele>
   </trkpt>
   <trkpt lat="-41.28826" lon="174.98255">
    <ele>469.09000000000003</ele>
   </trkpt>
   <trkpt lat="-41.288746673421215" lon="174.98343332015986">
    <ele>486.00000000000006</ele>
   </trkpt>
   <trkpt lat="-41.28923334009038" lon="174.9843166534975">
    <ele>497.15000000000003</ele>
   </trkpt>
   <trkpt lat="-41.28972" lon="174.98520000000002">
    <ele>506.53000000000003</ele>
   </trkpt>
   <trkpt lat="-41.28967" lon="174.98597">
    <ele>511.07</ele>
   </trkpt>
   <trkpt lat="-41.28996" lon="174.98614">
    <ele>516.5500000000001</ele>
   </trkpt>
   <trkpt lat="-41.28958" lon="174.98674000000003">
    <ele>525.14</ele>
   </trkpt>
   <trkpt lat="-41.28938000274324" lon="174.98754000255596">
    <ele>533.36</ele>
   </trkpt>
   <trkpt lat="-41.28918" lon="174.98834000000002">
    <ele>546.96</ele>
   </trkpt>
   <trkpt lat="-41.28864" lon="174.98870000000002">
    <ele>548.86</ele>
   </trkpt>
   <trkpt lat="-41.288340000000005" lon="174.98892">
    <ele>552.95</ele>
   </trkpt>
   <trkpt lat="-41.28844" lon="174.98934000000003">
    <ele>552.19</ele>
   </trkpt>
   <trkpt lat="-41.28898" lon="174.98947">
    <ele>550.8700000000001</ele>
   </trkpt>
   <trkpt lat="-41.28943" lon="174.98994000000002">
    <ele>551.6600000000001</ele>
   </trkpt>
   <trkpt lat="-41.28992" lon="174.99037">
    <ele>550.48</ele>
   </trkpt>
   <trkpt lat="-41.29021" lon="174.99050000000003">
    <ele>552.09</ele>
   </trkpt>
   <trkpt lat="-41.29043" lon="174.99007">
    <ele>554.1400000000001</ele>
   </trkpt>
   <trkpt lat="-41.29124" lon="174.99016">
    <ele>554.44</ele>
   </trkpt>
   <trkpt lat="-41.29189" lon="174.99041000000003">
    <ele>555.49</ele>
   </trkpt>
   <trkpt lat="-41.29242" lon="174.99058000000002">
    <ele>556.24</ele>
   </trkpt>
   <trkpt lat="-41.29276" lon="174.99093000000002">
    <ele>556.24</ele>
   </trkpt>
   <trkpt lat="-41.29268000226997" lon="174.99166000122202">
    <ele>562.97</ele>
   </trkpt>
   <trkpt lat="-41.2926" lon="174.99239">
    <ele>565.5300000000001</ele>
   </trkpt>
   <trkpt lat="-41.29283" lon="174.99286">
    <ele>566.3900000000001</ele>
   </trkpt>
   <trkpt lat="-41.29334" lon="174.99252">
    <ele>566.49</ele>
   </trkpt>
   <trkpt lat="-41.2939" lon="174.99222">
    <ele>566.96</ele>
   </trkpt>
   <trkpt lat="-41.29435" lon="174.99166000000002">
    <ele>567.19</ele>
   </trkpt>
   <trkpt lat="-41.29466" lon="174.99136000000001">
    <ele>568.0500000000001</ele>
   </trkpt>
   <trkpt lat="-41.295" lon="174.99144">
    <ele>567.85</ele>
   </trkpt>
   <trkpt lat="-41.29522" lon="174.99209000000002">
    <ele>568.4300000000001</ele>
   </trkpt>
   <trkpt lat="-41.29538" lon="174.99282000000002">
    <ele>572.03</ele>
   </trkpt>
   <trkpt lat="-41.29558" lon="174.99346000000003">
    <ele>573.99</ele>
   </trkpt>
   <trkpt lat="-41.29594" lon="174.99376">
    <ele>576.55</ele>
   </trkpt>
   <trkpt lat="-41.29632" lon="174.99307000000002">
    <ele>581.0300000000001</ele>
   </trkpt>
   <trkpt lat="-41.29668" lon="174.99273000000002">
    <ele>582.53</ele>
   </trkpt>
   <trkpt lat="-41.29733" lon="174.99256000000003">
    <ele>592.7900000000001</ele>
   </trkpt>
   <trkpt lat="-41.29757" lon="174.99264000000002">
    <ele>595.65</ele>
   </trkpt>
   <trkpt lat="-41.29773" lon="174.99316000000002">
    <ele>599.24</ele>
   </trkpt>
   <trkpt lat="-41.29764" lon="174.99380000000002">
    <ele>604.97</ele>
   </trkpt>
   <trkpt lat="-41.29793" lon="174.99432000000002">
    <ele>609.7800000000001</ele>
   </trkpt>
   <trkpt lat="-41.29831" lon="174.99428">
    <ele>616.3000000000001</ele>
   </trkpt>
   <trkpt lat="-41.29874" lon="174.9944">
    <ele>622.3700000000001</ele>
   </trkpt>
   <trkpt lat="-41.29889" lon="174.99496000000002">
    <ele>624.9800000000001</ele>
   </trkpt>
   <trkpt lat="-41.299510000000005" lon="174.99560000000002">
    <ele>631.75</ele>
   </trkpt>
   <trkpt lat="-41.30008" lon="174.99561000000003">
    <ele>622.5</ele>
   </trkpt>
   <trkpt lat="-41.30091" lon="174.99582">
    <ele>608.0000000000001</ele>
   </trkpt>
   <trkpt lat="-41.30147" lon="174.99603000000002">
    <ele>607.77</ele>
   </trkpt>
   <trkpt lat="-41.30189" lon="174.99616">
    <ele>604.58</ele>
   </trkpt>
   <trkpt lat="-41.30241" lon="174.99582">
    <ele>604.75</ele>
   </trkpt>
   <trkpt lat="-41.30306" lon="174.99548000000001">
    <ele>600.36</ele>
   </trkpt>
   <trkpt lat="-41.303810000000006" lon="174.99548000000001">
    <ele>591.61</ele>
   </trkpt>
   <trkpt lat="-41.3046" lon="174.99569000000002">
    <ele>582.5400000000001</ele>
   </trkpt>
   <trkpt lat="-41.30518" lon="174.99565">
    <ele>578.9200000000001</ele>
   </trkpt>
   <trkpt lat="-41.30579" lon="174.99548000000001">
    <ele>576.3100000000001</ele>
   </trkpt>
   <trkpt lat="-41.30637" lon="174.99522000000002">
    <ele>582.3000000000001</ele>
   </trkpt>
   <trkpt lat="-41.30709" lon="174.99518">
    <ele>581.2700000000001</ele>
   </trkpt>
   <trkpt lat="-41.307880000000004" lon="174.99505000000002">
    <ele>582.5</ele>
   </trkpt>
   <trkpt lat="-41.30843" lon="174.99573">
    <ele>568.44</ele>
   </trkpt>
   <trkpt lat="-41.30892" lon="174.99625">
    <ele>558.82</ele>
   </trkpt>
   <trkpt lat="-41.3093" lon="174.99676000000002">
    <ele>554.21</ele>
   </trkpt>
   <trkpt lat="-41.30995" lon="174.99702000000002">
    <ele>543.37</ele>
   </trkpt>
   <trkpt lat="-41.31069" lon="174.99728000000002">
    <ele>531.0600000000001</ele>
   </trkpt>
   <trkpt lat="-41.31134" lon="174.99767000000003">
    <ele>530.58</ele>
   </trkpt>
   <trkpt lat="-41.31188" lon="174.99792000000002">
    <ele>527.05</ele>
   </trkpt>
   <trkpt lat="-41.3125" lon="174.99801000000002">
    <ele>517.85</ele>
   </trkpt>
   <trkpt lat="-41.312900000000006" lon="174.99844000000002">
    <ele>510.8400000000001</ele>
   </trkpt>
   <trkpt lat="-41.313540000576026" lon="174.99880499641623">
    <ele>507.7900000000001</ele>
   </trkpt>
   <trkpt lat="-41.31418" lon="174.99917000000002">
    <ele>507.69000000000005</ele>
   </trkpt>
   <trkpt lat="-41.31477" lon="174.99874000000003">
    <ele>499.46</ele>
   </trkpt>
   <trkpt lat="-41.315580000000004" lon="174.99853000000002">
    <ele>487.33000000000004</ele>
   </trkpt>
   <trkpt lat="-41.31613" lon="174.99814">
    <ele>477.31</ele>
   </trkpt>
   <trkpt lat="-41.31676" lon="174.99762">
    <ele>473.52000000000004</ele>
   </trkpt>
   <trkpt lat="-41.31736" lon="174.99719000000002">
    <ele>475.65000000000003</ele>
   </trkpt>
   <trkpt lat="-41.31815" lon="174.99681">
    <ele>475.39000000000004</ele>
   </trkpt>
   <trkpt lat="-41.31875" lon="174.99629000000002">
    <ele>477.41</ele>
   </trkpt>
   <trkpt lat="-41.319390000000006" lon="174.99607">
    <ele>476.24000000000007</ele>
   </trkpt>
   <trkpt lat="-41.31996" lon="174.99651">
    <ele>459.0400000000001</ele>
   </trkpt>
   <trkpt lat="-41.32043" lon="174.99685000000002">
    <ele>443.81</ele>
   </trkpt>
   <trkpt lat="-41.32061" lon="174.99728000000002">
    <ele>436.11000000000007</ele>
   </trkpt>
   <trkpt lat="-41.32101" lon="174.99745000000001">
    <ele>423.84000000000003</ele>
   </trkpt>
   <trkpt lat="-41.32123" lon="174.99818000000002">
    <ele>413.96000000000004</ele>
   </trkpt>
   <trkpt lat="-41.32173" lon="174.99835000000002">
    <ele>406.83000000000004</ele>
   </trkpt>
   <trkpt lat="-41.3222" lon="174.99831">
    <ele>401.88</ele>
   </trkpt>
   <trkpt lat="-41.322570000000006" lon="174.99831">
    <ele>390.47</ele>
   </trkpt>
   <trkpt lat="-41.3228" lon="174.99861">
    <ele>376.02000000000004</ele>
   </trkpt>
   <trkpt lat="-41.32316" lon="174.99925000000002">
    <ele>355.21000000000004</ele>
   </trkpt>
   <trkpt lat="-41.32343" lon="174.99947">
    <ele>346.48</ele>
   </trkpt>
   <trkpt lat="-41.32341" lon="174.99973000000003">
    <ele>342.08000000000004</ele>
   </trkpt>
   <trkpt lat="-41.323600000000006" lon="174.99964000000003">
    <ele>337.13000000000005</ele>
   </trkpt>
   <trkpt lat="-41.323600000000006" lon="175.00003">
    <ele>329.96000000000004</ele>
   </trkpt>
   <trkpt lat="-41.32394" lon="175.00011">
    <ele>319.38000000000005</ele>
   </trkpt>
   <trkpt lat="-41.32455" lon="175.00050000000002">
    <ele>294.26</ele>
   </trkpt>
   <trkpt lat="-41.32453" lon="175.00076">
    <ele>289.6</ele>
   </trkpt>
   <trkpt lat="-41.3243" lon="175.0011">
    <ele>272.89000000000004</ele>
   </trkpt>
   <trkpt lat="-41.32437" lon="175.00148000000002">
    <ele>263.47</ele>
   </trkpt>
   <trkpt lat="-41.32461" lon="175.00170000000003">
    <ele>254.36</ele>
   </trkpt>
   <trkpt lat="-41.32522" lon="175.00183">
    <ele>232.4</ele>
   </trkpt>
   <trkpt lat="-41.32538" lon="175.00221000000002">
    <ele>217.45</ele>
   </trkpt>
   <trkpt lat="-41.32562" lon="175.00239000000002">
    <ele>206.48000000000002</ele>
   </trkpt>
   <trkpt lat="-41.32571" lon="175.0029">
    <ele>196.83</ele>
   </trkpt>
   <trkpt lat="-41.32542" lon="175.00342">
    <ele>182.92000000000002</ele>
   </trkpt>
   <trkpt lat="-41.32511" lon="175.00359">
    <ele>176.6</ele>
   </trkpt>
   <trkpt lat="-41.32517" lon="175.00388">
    <ele>170.38</ele>
   </trkpt>
   <trkpt lat="-41.32578" lon="175.00406">
    <ele>151.89000000000001</ele>
   </trkpt>
   <trkpt lat="-41.32605" lon="175.00402000000003">
    <ele>147.82</ele>
   </trkpt>
   <trkpt lat="-41.32654" lon="175.00410000000002">
    <ele>145.49</ele>
   </trkpt>
   <trkpt lat="-41.32678000000001" lon="175.00421">
    <ele>143.38</ele>
   </trkpt>
   <trkpt lat="-41.32679" lon="175.00415">
    <ele>143.38</ele>
   </trkpt>
   <trkpt lat="-41.32678000000001" lon="175.00418000000002">
    <ele>143.33</ele>
   </trkpt>
   <trkpt lat="-41.32636" lon="175.00499000000002">
    <ele>168.45000000000002</ele>
   </trkpt>
   <trkpt lat="-41.32596" lon="175.00508000000002">
    <ele>184.51</ele>
   </trkpt>
   <trkpt lat="-41.32531" lon="175.00576">
    <ele>218.37</ele>
   </trkpt>
   <trkpt lat="-41.32495" lon="175.00609">
    <ele>235.70000000000002</ele>
   </trkpt>
   <trkpt lat="-41.32488" lon="175.00634000000002">
    <ele>247.97000000000003</ele>
   </trkpt>
   <trkpt lat="-41.32432" lon="175.00662000000003">
    <ele>263.74</ele>
   </trkpt>
   <trkpt lat="-41.32372" lon="175.00703000000001">
    <ele>287.76</ele>
   </trkpt>
   <trkpt lat="-41.32325" lon="175.00763">
    <ele>308.07</ele>
   </trkpt>
   <trkpt lat="-41.32267" lon="175.00785000000002">
    <ele>322.95</ele>
   </trkpt>
   <trkpt lat="-41.3222200003344" lon="175.0080400012368">
    <ele>335.53000000000003</ele>
   </trkpt>
   <trkpt lat="-41.32177" lon="175.00823000000003">
    <ele>348.33000000000004</ele>
   </trkpt>
   <trkpt lat="-41.32119000059257" lon="175.00858500313058">
    <ele>357.49</ele>
   </trkpt>
   <trkpt lat="-41.32061" lon="175.00894000000002">
    <ele>367.52</ele>
   </trkpt>
   <trkpt lat="-41.320040000000006" lon="175.00946000000002">
    <ele>380.93000000000006</ele>
   </trkpt>
   <trkpt lat="-41.31986500219977" lon="175.01017500197094">
    <ele>386.74</ele>
   </trkpt>
   <trkpt lat="-41.31969" lon="175.01089000000002">
    <ele>391.24</ele>
   </trkpt>
   <trkpt lat="-41.31932000205229" lon="175.0115800039321">
    <ele>406.0</ele>
   </trkpt>
   <trkpt lat="-41.31895" lon="175.01227">
    <ele>412.69000000000005</ele>
   </trkpt>
   <trkpt lat="-41.31866" lon="175.01306000000002">
    <ele>427.23</ele>
   </trkpt>
   <trkpt lat="-41.31826" lon="175.01353">
    <ele>431.2300000000001</ele>
   </trkpt>
   <trkpt lat="-41.31761" lon="175.01362">
    <ele>428.1</ele>
   </trkpt>
   <trkpt lat="-41.31705" lon="175.01413000000002">
    <ele>424.14</ele>
   </trkpt>
   <trkpt lat="-41.31622" lon="175.01441000000003">
    <ele>418.12000000000006</ele>
   </trkpt>
   <trkpt lat="-41.31575000078615" lon="175.0148400031133">
    <ele>419.21000000000004</ele>
   </trkpt>
   <trkpt lat="-41.31528" lon="175.01527000000002">
    <ele>423.79</ele>
   </trkpt>
   <trkpt lat="-41.31466" lon="175.01591000000002">
    <ele>437.1</ele>
   </trkpt>
   <trkpt lat="-41.31466" lon="175.01590000000002">
    <ele>436.92</ele>
   </trkpt>
   <trkpt lat="-41.31441" lon="175.01617000000002">
    <ele>444.47</ele>
   </trkpt>
   <trkpt lat="-41.3138" lon="175.01656000000003">
    <ele>458.72</ele>
   </trkpt>
   <trkpt lat="-41.31338" lon="175.01649">
    <ele>466.70000000000005</ele>
   </trkpt>
   <trkpt lat="-41.31282" lon="175.01613">
    <ele>473.58000000000004</ele>
   </trkpt>
   <trkpt lat="-41.31201" lon="175.01637000000002">
    <ele>471.97</ele>
   </trkpt>
   <trkpt lat="-41.31153999994134" lon="175.01634499981654">
    <ele>476.98</ele>
   </trkpt>
   <trkpt lat="-41.31107" lon="175.01632">
    <ele>480.89000000000004</ele>
   </trkpt>
   <trkpt lat="-41.310520000103836" lon="175.01631999999998">
    <ele>477.91</ele>
   </trkpt>
   <trkpt lat="-41.30997" lon="175.01632">
    <ele>494.96000000000004</ele>
   </trkpt>
   <trkpt lat="-41.30929000015247" lon="175.0162049988167">
    <ele>503.2000000000001</ele>
   </trkpt>
   <trkpt lat="-41.30861" lon="175.01609000000002">
    <ele>515.51</ele>
   </trkpt>
   <trkpt lat="-41.30803" lon="175.01596">
    <ele>511.21000000000004</ele>
   </trkpt>
   <trkpt lat="-41.307390000268576" lon="175.01572499770418">
    <ele>504.6700000000001</ele>
   </trkpt>
   <trkpt lat="-41.30675" lon="175.01549000000003">
    <ele>520.15</ele>
   </trkpt>
   <trkpt lat="-41.30622000041896" lon="175.01572500183036">
    <ele>536.79</ele>
   </trkpt>
   <trkpt lat="-41.305690000000006" lon="175.01596">
    <ele>557.44</ele>
   </trkpt>
   <trkpt lat="-41.30539" lon="175.01600000000002">
    <ele>574.1200000000001</ele>
   </trkpt>
   <trkpt lat="-41.30491000000001" lon="175.01649">
    <ele>592.38</ele>
   </trkpt>
   <trkpt lat="-41.30456" lon="175.01626000000002">
    <ele>598.1899999999999</ele>
   </trkpt>
   <trkpt lat="-41.30415" lon="175.01596">
    <ele>605.1200000000001</ele>
   </trkpt>
   <trkpt lat="-41.30382" lon="175.01540000000003">
    <ele>609.2</ele>
   </trkpt>
   <trkpt lat="-41.30348" lon="175.01533">
    <ele>614.02</ele>
   </trkpt>
   <trkpt lat="-41.30339" lon="175.01508">
    <ele>619.73</ele>
   </trkpt>
   <trkpt lat="-41.30297" lon="175.01471">
    <ele>627.95</ele>
   </trkpt>
   <trkpt lat="-41.30279" lon="175.01394000000002">
    <ele>643.2</ele>
   </trkpt>
   <trkpt lat="-41.3025" lon="175.01338">
    <ele>652.84</ele>
   </trkpt>
   <trkpt lat="-41.30198" lon="175.01340000000002">
    <ele>649.54</ele>
   </trkpt>
   <trkpt lat="-41.30167" lon="175.01370000000003">
    <ele>645.78</ele>
   </trkpt>
   <trkpt lat="-41.30095" lon="175.01364">
    <ele>642.3199999999999</ele>
   </trkpt>
   <trkpt lat="-41.30046" lon="175.01383">
    <ele>649.69</ele>
   </trkpt>
   <trkpt lat="-41.30006" lon="175.01392">
    <ele>661.03</ele>
   </trkpt>
   <trkpt lat="-41.29959" lon="175.01452">
    <ele>673.42</ele>
   </trkpt>
   <trkpt lat="-41.2988" lon="175.01461">
    <ele>671.12</ele>
   </trkpt>
   <trkpt lat="-41.29831" lon="175.01499">
    <ele>670.51</ele>
   </trkpt>
   <trkpt lat="-41.297630000000005" lon="175.01522000000003">
    <ele>672.82</ele>
   </trkpt>
   <trkpt lat="-41.29692" lon="175.01497">
    <ele>676.27</ele>
   </trkpt>
   <trkpt lat="-41.296430000200935" lon="175.01500500024895">
    <ele>680.9900000000001</ele>
   </trkpt>
   <trkpt lat="-41.29594" lon="175.01504000000003">
    <ele>686.7800000000001</ele>
   </trkpt>
   <trkpt lat="-41.295415000048564" lon="175.01511000055976">
    <ele>692.83</ele>
   </trkpt>
   <trkpt lat="-41.29489" lon="175.01518000000002">
    <ele>705.72</ele>
   </trkpt>
   <trkpt lat="-41.29448500106336" lon="175.01566500295667">
    <ele>712.73</ele>
   </trkpt>
   <trkpt lat="-41.29408" lon="175.01615">
    <ele>717.72</ele>
   </trkpt>
   <trkpt lat="-41.29345" lon="175.01649">
    <ele>725.5800000000002</ele>
   </trkpt>
   <trkpt lat="-41.29287000018673" lon="175.01641499935417">
    <ele>731.5100000000001</ele>
   </trkpt>
   <trkpt lat="-41.29229" lon="175.01634">
    <ele>733.83</ele>
   </trkpt>
   <trkpt lat="-41.29181000004008" lon="175.01616999871908">
    <ele>736.4600000000002</ele>
   </trkpt>
   <trkpt lat="-41.29133" lon="175.01600000000002">
    <ele>741.8800000000001</ele>
   </trkpt>
   <trkpt lat="-41.29077" lon="175.01587">
    <ele>754.46</ele>
   </trkpt>
   <trkpt lat="-41.29021" lon="175.01604">
    <ele>768.21</ele>
   </trkpt>
   <trkpt lat="-41.289550000000006" lon="175.01551">
    <ele>784.34</ele>
   </trkpt>
   <trkpt lat="-41.28909" lon="175.01523">
    <ele>796.8900000000001</ele>
   </trkpt>
   <trkpt lat="-41.28936" lon="175.01433">
    <ele>776.6800000000001</ele>
   </trkpt>
   <trkpt lat="-41.28936" lon="175.01351000000003">
    <ele>776.12</ele>
   </trkpt>
   <trkpt lat="-41.28931" lon="175.01295000000002">
    <ele>773.9300000000001</ele>
   </trkpt>
   <trkpt lat="-41.28959000083262" lon="175.01248000222384">
    <ele>772.27</ele>
   </trkpt>
   <trkpt lat="-41.28987" lon="175.01201">
    <ele>770.47</ele>
   </trkpt>
   <trkpt lat="-41.29003" lon="175.01132">
    <ele>763.1800000000001</ele>
   </trkpt>
   <trkpt lat="-41.28974" lon="175.01096">
    <ele>762.1600000000001</ele>
   </trkpt>
   <trkpt lat="-41.28947" lon="175.01087">
    <ele>759.12</ele>
   </trkpt>
   <trkpt lat="-41.2894" lon="175.01029000000003">
    <ele>745.75</ele>
   </trkpt>
   <trkpt lat="-41.28949" lon="175.00948000000002">
    <ele>728.38</ele>
   </trkpt>
   <trkpt lat="-41.28978" lon="175.00901000000002">
    <ele>718.47</ele>
   </trkpt>
   <trkpt lat="-41.29045" lon="175.00849000000002">
    <ele>707.8199999999999</ele>
   </trkpt>
   <trkpt lat="-41.29086" lon="175.00802000000002">
    <ele>697.55</ele>
   </trkpt>
   <trkpt lat="-41.29077" lon="175.00724000000002">
    <ele>689.46</ele>
   </trkpt>
   <trkpt lat="-41.29073" lon="175.0064">
    <ele>670.9900000000001</ele>
   </trkpt>
   <trkpt lat="-41.29088" lon="175.00529">
    <ele>641.94</ele>
   </trkpt>
   <trkpt lat="-41.29081" lon="175.00433">
    <ele>622.6700000000001</ele>
   </trkpt>
   <trkpt lat="-41.29115" lon="175.00362">
    <ele>603.23</ele>
   </trkpt>
   <trkpt lat="-41.29134500197544" lon="175.0029400021207">
    <ele>604.7900000000001</ele>
   </trkpt>
   <trkpt lat="-41.291540000000005" lon="175.00226">
    <ele>612.0600000000001</ele>
   </trkpt>
   <trkpt lat="-41.29155" lon="175.00225">
    <ele>612.5500000000001</ele>
   </trkpt>
   <trkpt lat="-41.291700000000006" lon="175.00173">
    <ele>631.1800000000001</ele>
   </trkpt>
   <trkpt lat="-41.29166000217965" lon="175.00101999953816">
    <ele>645.23</ele>
   </trkpt>
   <trkpt lat="-41.29162" lon="175.00031">
    <ele>654.0400000000001</ele>
   </trkpt>
   <trkpt lat="-41.29146" lon="174.99952000000002">
    <ele>672.2600000000001</ele>
   </trkpt>
   <trkpt lat="-41.29133" lon="174.99836000000002">
    <ele>696.5</ele>
   </trkpt>
   <trkpt lat="-41.29101" lon="174.99765000000002">
    <ele>710.0300000000001</ele>
   </trkpt>
   <trkpt lat="-41.29081" lon="174.99726">
    <ele>713.48</ele>
   </trkpt>
   <trkpt lat="-41.29007" lon="174.9966">
    <ele>703.3000000000001</ele>
   </trkpt>
   <trkpt lat="-41.28945" lon="174.99583">
    <ele>689.09</ele>
   </trkpt>
   <trkpt lat="-41.28871" lon="174.99536">
    <ele>677.59</ele>
   </trkpt>
   <trkpt lat="-41.28837" lon="174.99527">
    <ele>674.35</ele>
   </trkpt>
   <trkpt lat="-41.28819" lon="174.99504000000002">
    <ele>672.85</ele>
   </trkpt>
   <trkpt lat="-41.288230000000006" lon="174.99441000000002">
    <ele>667.97</ele>
   </trkpt>
   <trkpt lat="-41.28795" lon="174.99403">
    <ele>663.2800000000001</ele>
   </trkpt>
   <trkpt lat="-41.28797" lon="174.99321">
    <ele>645.66</ele>
   </trkpt>
   <trkpt lat="-41.28788" lon="174.99276">
    <ele>638.0400000000001</ele>
   </trkpt>
   <trkpt lat="-41.28782" lon="174.99257">
    <ele>633.51</ele>
   </trkpt>
   <trkpt lat="-41.28782" lon="174.99256000000003">
    <ele>633.51</ele>
   </trkpt>
   <trkpt lat="-41.28768" lon="174.99216">
    <ele>622.32</ele>
   </trkpt>
   <trkpt lat="-41.28763" lon="174.99156000000002">
    <ele>606.6</ele>
   </trkpt>
   <trkpt lat="-41.28734" lon="174.99051">
    <ele>578.1200000000001</ele>
   </trkpt>
   <trkpt lat="-41.28734" lon="174.98993000000002">
    <ele>565.2600000000001</ele>
   </trkpt>
   <trkpt lat="-41.28757" lon="174.98922000000002">
    <ele>556.35</ele>
   </trkpt>
   <trkpt lat="-41.28806" lon="174.98907000000003">
    <ele>553.9200000000001</ele>
   </trkpt>
   <trkpt lat="-41.288340000000005" lon="174.98892">
    <ele>553.1700000000001</ele>
   </trkpt>
   <trkpt lat="-41.28864" lon="174.98870000000002">
    <ele>548.86</ele>
   </trkpt>
   <trkpt lat="-41.28918" lon="174.98834000000002">
    <ele>546.5600000000001</ele>
   </trkpt>
   <trkpt lat="-41.28938000279503" lon="174.98754000234882">
    <ele>533.36</ele>
   </trkpt>
   <trkpt lat="-41.28958" lon="174.98674000000003">
    <ele>525.14</ele>
   </trkpt>
   <trkpt lat="-41.28996" lon="174.98614">
    <ele>515.69</ele>
   </trkpt>
   <trkpt lat="-41.28967" lon="174.98597">
    <ele>510.53999999999996</ele>
   </trkpt>
   <trkpt lat="-41.28972" lon="174.98520000000002">
    <ele>506.0</ele>
   </trkpt>
   <trkpt lat="-41.28923334008311" lon="174.9843166534843">
    <ele>497.15000000000003</ele>
   </trkpt>
   <trkpt lat="-41.28874667341395" lon="174.98343332014664">
    <ele>486.00000000000006</ele>
   </trkpt>
   <trkpt lat="-41.28826" lon="174.98255">
    <ele>465.94</ele>
   </trkpt>
   <trkpt lat="-41.288140000000006" lon="174.98155000000003">
    <ele>450.18</ele>
   </trkpt>
   <trkpt lat="-41.288340000000005" lon="174.98048000000003">
    <ele>422.55</ele>
   </trkpt>
   <trkpt lat="-41.287850000000006" lon="174.98018000000002">
    <ele>404.04</ele>
   </trkpt>
   <trkpt lat="-41.2875" lon="174.97958000000003">
    <ele>387.57</ele>
   </trkpt>
   <trkpt lat="-41.28727500187814" lon="174.97890999749865">
    <ele>370.29</ele>
   </trkpt>
   <trkpt lat="-41.28705" lon="174.97824000000003">
    <ele>356.94000000000005</ele>
   </trkpt>
   <trkpt lat="-41.28649" lon="174.97751000000002">
    <ele>347.96000000000004</ele>
   </trkpt>
   <trkpt lat="-41.2862" lon="174.97709">
    <ele>345.83000000000004</ele>
   </trkpt>
   <trkpt lat="-41.28584" lon="174.97696000000002">
    <ele>338.41</ele>
   </trkpt>
   <trkpt lat="-41.28546000207526" lon="174.97628499625367">
    <ele>327.32</ele>
   </trkpt>
   <trkpt lat="-41.28508" lon="174.97561000000002">
    <ele>308.91</ele>
   </trkpt>
   <trkpt lat="-41.28513" lon="174.97474000000003">
    <ele>292.29</ele>
   </trkpt>
   <trkpt lat="-41.28486" lon="174.97434">
    <ele>284.96999999999997</ele>
   </trkpt>
   <trkpt lat="-41.28528" lon="174.97382000000002">
    <ele>271.25000000000006</ele>
   </trkpt>
   <trkpt lat="-41.285320000000006" lon="174.97336">
    <ele>260.01</ele>
   </trkpt>
   <trkpt lat="-41.285045001358924" lon="174.97278499742703">
    <ele>246.36</ele>
   </trkpt>
   <trkpt lat="-41.28477" lon="174.97221000000002">
    <ele>233.57000000000002</ele>
   </trkpt>
   <trkpt lat="-41.28443" lon="174.97162">
    <ele>214.82</ele>
   </trkpt>
   <trkpt lat="-41.28385" lon="174.97159000000002">
    <ele>203.36</ele>
   </trkpt>
   <trkpt lat="-41.28363" lon="174.97094">
    <ele>193.09</ele>
   </trkpt>
   <trkpt lat="-41.28336" lon="174.97048">
    <ele>182.74</ele>
   </trkpt>
   <trkpt lat="-41.28307" lon="174.97018000000003">
    <ele>173.51000000000002</ele>
   </trkpt>
   <trkpt lat="-41.28284" lon="174.97016000000002">
    <ele>168.03</ele>
   </trkpt>
   <trkpt lat="-41.28235" lon="174.96994">
    <ele>161.59</ele>
   </trkpt>
   <trkpt lat="-41.281940000000006" lon="174.96995">
    <ele>162.64000000000001</ele>
   </trkpt>
   <trkpt lat="-41.281560000000006" lon="174.96955000000003">
    <ele>150.43</ele>
   </trkpt>
   <trkpt lat="-41.2811" lon="174.96939">
    <ele>140.19</ele>
   </trkpt>
   <trkpt lat="-41.281090000000006" lon="174.96939">
    <ele>140.19</ele>
   </trkpt>
   <trkpt lat="-41.28081" lon="174.96945000000002">
    <ele>135.89000000000001</ele>
   </trkpt>
   <trkpt lat="-41.28027" lon="174.96946000000003">
    <ele>129.39000000000001</ele>
   </trkpt>
   <trkpt lat="-41.27970000001026" lon="174.96956500092398">
    <ele>122.88000000000001</ele>
   </trkpt>
   <trkpt lat="-41.27913" lon="174.96967">
    <ele>130.81</ele>
   </trkpt>
   <trkpt lat="-41.27877" lon="174.96961000000002">
    <ele>125.41000000000003</ele>
   </trkpt>
   <trkpt lat="-41.278090000000006" lon="174.96964000000003">
    <ele>117.48000000000002</ele>
   </trkpt>
   <trkpt lat="-41.27747" lon="174.96970000000002">
    <ele>112.14</ele>
   </trkpt>
   <trkpt lat="-41.27693" lon="174.96981000000002">
    <ele>102.71000000000001</ele>
   </trkpt>
   <trkpt lat="-41.27667" lon="174.96975">
    <ele>101.65</ele>
   </trkpt>
   <trkpt lat="-41.276340000000005" lon="174.96972000000002">
    <ele>100.85000000000001</ele>
   </trkpt>
  </trkseg>
 </trk>
</gpx>
