<?xml version="1.0" encoding="UTF-8"?>
<gpx creator="StravaGPX" version="1.1" xmlns="http://www.topografix.com/GPX/1/1" xmlns:xsi="http://www.w3.org/2001/XMLSchema-instance" xsi:schemaLocation="http://www.topografix.com/GPX/1/1 http://www.topografix.com/GPX/1/1/gpx.xsd">
 <metadata>
  <name>B-Course</name>
  <author>
   <name>Callum Mallett</name>
   <link href="https://www.strava.com/athletes/48058415"/>
  </author>
  <copyright author="OpenStreetMap contributors">
   <year>2020</year>
   <license>https://www.openstreetmap.org/copyright</license>
  </copyright>
  <link href="https://www.strava.com/routes/3519909939976978822"/>
 </metadata>
 <trk>
  <name>B-Course</name>
  <link href="https://www.strava.com/routes/3519909939976978822"/>
  <type>running</type>
  <trkseg>
   <trkpt lat="-41.35475" lon="174.91284000000002">
    <ele>36.120000000000005</ele>
   </trkpt>
   <trkpt lat="-41.354780000000005" lon="174.91322000000002">
    <ele>36.71</ele>
   </trkpt>
   <trkpt lat="-41.3549" lon="174.91345">
    <ele>36.95</ele>
   </trkpt>
   <trkpt lat="-41.35533" lon="174.91405">
    <ele>38.790000000000006</ele>
   </trkpt>
   <trkpt lat="-41.35539" lon="174.91426">
    <ele>39.75</ele>
   </trkpt>
   <trkpt lat="-41.35537" lon="174.91459">
    <ele>40.84</ele>
   </trkpt>
   <trkpt lat="-41.35533" lon="174.91482000000002">
    <ele>41.56</ele>
   </trkpt>
   <trkpt lat="-41.355050001180516" lon="174.9153500023466">
    <ele>42.92000000000001</ele>
   </trkpt>
   <trkpt lat="-41.35477" lon="174.91588000000002">
    <ele>44.18</ele>
   </trkpt>
   <trkpt lat="-41.3545" lon="174.91654000000003">
    <ele>43.77</ele>
   </trkpt>
   <trkpt lat="-41.3541" lon="174.91712">
    <ele>42.39</ele>
   </trkpt>
   <trkpt lat="-41.35365" lon="174.91745">
    <ele>43.35000000000001</ele>
   </trkpt>
   <trkpt lat="-41.353350000000006" lon="174.91782">
    <ele>44.370000000000005</ele>
   </trkpt>
   <trkpt lat="-41.35322" lon="174.91804000000002">
    <ele>44.370000000000005</ele>
   </trkpt>
   <trkpt lat="-41.35313" lon="174.91832000000002">
    <ele>45.19</ele>
   </trkpt>
   <trkpt lat="-41.353" lon="174.91905000000003">
    <ele>45.71</ele>
   </trkpt>
   <trkpt lat="-41.35291" lon="174.91963">
    <ele>46.03</ele>
   </trkpt>
   <trkpt lat="-41.3528" lon="174.92015">
    <ele>47.190000000000005</ele>
   </trkpt>
   <trkpt lat="-41.35271" lon="174.9205">
    <ele>47.52</ele>
   </trkpt>
   <trkpt lat="-41.35233" lon="174.92129000000003">
    <ele>48.61000000000001</ele>
   </trkpt>
   <trkpt lat="-41.35201" lon="174.92191000000003">
    <ele>48.95</ele>
   </trkpt>
   <trkpt lat="-41.35159" lon="174.92233000000002">
    <ele>51.940000000000005</ele>
   </trkpt>
   <trkpt lat="-41.35114" lon="174.92270000000002">
    <ele>54.26</ele>
   </trkpt>
   <trkpt lat="-41.35101" lon="174.92286000000001">
    <ele>54.8</ele>
   </trkpt>
   <trkpt lat="-41.35087" lon="174.92306000000002">
    <ele>55.43000000000001</ele>
   </trkpt>
   <trkpt lat="-41.3506" lon="174.92372">
    <ele>53.980000000000004</ele>
   </trkpt>
   <trkpt lat="-41.35051" lon="174.92401">
    <ele>53.03000000000001</ele>
   </trkpt>
   <trkpt lat="-41.35047" lon="174.92432000000002">
    <ele>52.21000000000001</ele>
   </trkpt>
   <trkpt lat="-41.35047" lon="174.92465">
    <ele>51.63</ele>
   </trkpt>
   <trkpt lat="-41.35045" lon="174.92493000000002">
    <ele>51.64000000000001</ele>
   </trkpt>
   <trkpt lat="-41.35027" lon="174.92572">
    <ele>52.96000000000001</ele>
   </trkpt>
   <trkpt lat="-41.349920000000004" lon="174.92637000000002">
    <ele>54.09</ele>
   </trkpt>
   <trkpt lat="-41.34971" lon="174.92655000000002">
    <ele>54.67</ele>
   </trkpt>
   <trkpt lat="-41.34951" lon="174.92677">
    <ele>57.220000000000006</ele>
   </trkpt>
   <trkpt lat="-41.34933" lon="174.92710000000002">
    <ele>58.85000000000001</ele>
   </trkpt>
   <trkpt lat="-41.34899000080532" lon="174.92752000214165">
    <ele>59.160000000000004</ele>
   </trkpt>
   <trkpt lat="-41.348650000000006" lon="174.92794">
    <ele>59.61</ele>
   </trkpt>
   <trkpt lat="-41.34859" lon="174.92807000000002">
    <ele>60.410000000000004</ele>
   </trkpt>
   <trkpt lat="-41.34848" lon="174.92921">
    <ele>63.83000000000001</ele>
   </trkpt>
   <trkpt lat="-41.34855" lon="174.92947">
    <ele>63.84</ele>
   </trkpt>
   <trkpt lat="-41.34859" lon="174.9301">
    <ele>65.62</ele>
   </trkpt>
   <trkpt lat="-41.34863" lon="174.93022000000002">
    <ele>65.62</ele>
   </trkpt>
   <trkpt lat="-41.348710000000004" lon="174.93026">
    <ele>65.62</ele>
   </trkpt>
   <trkpt lat="-41.34882" lon="174.93031000000002">
    <ele>67.0</ele>
   </trkpt>
   <trkpt lat="-41.34882" lon="174.93032000000002">
    <ele>67.0</ele>
   </trkpt>
   <trkpt lat="-41.34902" lon="174.93046">
    <ele>69.59</ele>
   </trkpt>
   <trkpt lat="-41.34935" lon="174.93121000000002">
    <ele>81.27000000000001</ele>
   </trkpt>
   <trkpt lat="-41.34946" lon="174.93178">
    <ele>86.76</ele>
   </trkpt>
   <trkpt lat="-41.34955" lon="174.93209000000002">
    <ele>87.8</ele>
   </trkpt>
   <trkpt lat="-41.34975" lon="174.93247000000002">
    <ele>89.03000000000002</ele>
   </trkpt>
   <trkpt lat="-41.349790000000006" lon="174.93266000000003">
    <ele>88.15</ele>
   </trkpt>
   <trkpt lat="-41.34975" lon="174.93282000000002">
    <ele>86.64</ele>
   </trkpt>
   <trkpt lat="-41.34955" lon="174.93334000000002">
    <ele>79.63000000000001</ele>
   </trkpt>
   <trkpt lat="-41.34919" lon="174.93376">
    <ele>75.01</ele>
   </trkpt>
   <trkpt lat="-41.34931" lon="174.93411">
    <ele>75.89000000000001</ele>
   </trkpt>
   <trkpt lat="-41.34933" lon="174.93439">
    <ele>78.73</ele>
   </trkpt>
   <trkpt lat="-41.34917" lon="174.93493">
    <ele>81.22</ele>
   </trkpt>
   <trkpt lat="-41.34906" lon="174.93502">
    <ele>80.23</ele>
   </trkpt>
   <trkpt lat="-41.34882" lon="174.93508000000003">
    <ele>79.4</ele>
   </trkpt>
   <trkpt lat="-41.34868" lon="174.93531000000002">
    <ele>82.06</ele>
   </trkpt>
   <trkpt lat="-41.348670000000006" lon="174.93565">
    <ele>82.06</ele>
   </trkpt>
   <trkpt lat="-41.34852" lon="174.93607">
    <ele>83.52000000000001</ele>
   </trkpt>
   <trkpt lat="-41.34834" lon="174.93617">
    <ele>84.38000000000001</ele>
   </trkpt>
   <trkpt lat="-41.34843" lon="174.93645">
    <ele>85.91</ele>
   </trkpt>
   <trkpt lat="-41.34841" lon="174.93679">
    <ele>87.01</ele>
   </trkpt>
   <trkpt lat="-41.34823" lon="174.93684000000002">
    <ele>87.71000000000001</ele>
   </trkpt>
   <trkpt lat="-41.34839" lon="174.93735">
    <ele>87.35000000000001</ele>
   </trkpt>
   <trkpt lat="-41.348380000000006" lon="174.93751">
    <ele>87.17000000000002</ele>
   </trkpt>
   <trkpt lat="-41.348380000000006" lon="174.93769">
    <ele>87.39</ele>
   </trkpt>
   <trkpt lat="-41.34814" lon="174.93765000000002">
    <ele>88.16</ele>
   </trkpt>
   <trkpt lat="-41.3481" lon="174.93781">
    <ele>88.88</ele>
   </trkpt>
   <trkpt lat="-41.34788" lon="174.93815">
    <ele>87.68</ele>
   </trkpt>
   <trkpt lat="-41.34796" lon="174.93828000000002">
    <ele>87.41</ele>
   </trkpt>
   <trkpt lat="-41.34801" lon="174.9387">
    <ele>86.98</ele>
   </trkpt>
   <trkpt lat="-41.348000000000006" lon="174.93894">
    <ele>87.29</ele>
   </trkpt>
   <trkpt lat="-41.34781" lon="174.93910000000002">
    <ele>88.36</ele>
   </trkpt>
   <trkpt lat="-41.34763" lon="174.93918000000002">
    <ele>88.72</ele>
   </trkpt>
   <trkpt lat="-41.347440000000006" lon="174.93921">
    <ele>89.87</ele>
   </trkpt>
   <trkpt lat="-41.3472" lon="174.93929000000003">
    <ele>90.62</ele>
   </trkpt>
   <trkpt lat="-41.34709" lon="174.93954000000002">
    <ele>92.06</ele>
   </trkpt>
   <trkpt lat="-41.34707" lon="174.93980000000002">
    <ele>96.44000000000001</ele>
   </trkpt>
   <trkpt lat="-41.34738" lon="174.94047">
    <ele>103.82000000000001</ele>
   </trkpt>
   <trkpt lat="-41.34747" lon="174.94083">
    <ele>105.54</ele>
   </trkpt>
   <trkpt lat="-41.34745" lon="174.9413">
    <ele>103.31000000000002</ele>
   </trkpt>
   <trkpt lat="-41.34707" lon="174.94205000000002">
    <ele>104.3</ele>
   </trkpt>
   <trkpt lat="-41.34693" lon="174.94224000000003">
    <ele>106.2</ele>
   </trkpt>
   <trkpt lat="-41.34689" lon="174.94241000000002">
    <ele>107.07000000000001</ele>
   </trkpt>
   <trkpt lat="-41.34664" lon="174.94278000000003">
    <ele>108.07000000000001</ele>
   </trkpt>
   <trkpt lat="-41.34658" lon="174.94293000000002">
    <ele>108.07000000000001</ele>
   </trkpt>
   <trkpt lat="-41.346590000000006" lon="174.94292000000002">
    <ele>108.05000000000001</ele>
   </trkpt>
   <trkpt lat="-41.34644" lon="174.94330000000002">
    <ele>108.85</ele>
   </trkpt>
   <trkpt lat="-41.34626" lon="174.94344">
    <ele>108.67</ele>
   </trkpt>
   <trkpt lat="-41.34604" lon="174.94353">
    <ele>109.76</ele>
   </trkpt>
   <trkpt lat="-41.34586" lon="174.94383000000002">
    <ele>110.09</ele>
   </trkpt>
   <trkpt lat="-41.345760000000006" lon="174.94381">
    <ele>109.21000000000001</ele>
   </trkpt>
   <trkpt lat="-41.34541" lon="174.94368">
    <ele>105.53000000000002</ele>
   </trkpt>
   <trkpt lat="-41.34508" lon="174.94373000000002">
    <ele>105.41</ele>
   </trkpt>
   <trkpt lat="-41.34452" lon="174.94419000000002">
    <ele>111.61000000000001</ele>
   </trkpt>
   <trkpt lat="-41.34436" lon="174.94438000000002">
    <ele>111.59</ele>
   </trkpt>
   <trkpt lat="-41.34405" lon="174.94484000000003">
    <ele>110.81</ele>
   </trkpt>
   <trkpt lat="-41.343970000000006" lon="174.94503">
    <ele>109.36000000000001</ele>
   </trkpt>
   <trkpt lat="-41.34373" lon="174.94504">
    <ele>108.45</ele>
   </trkpt>
   <trkpt lat="-41.34344" lon="174.94502000000003">
    <ele>108.19000000000001</ele>
   </trkpt>
   <trkpt lat="-41.34331" lon="174.94506">
    <ele>107.13</ele>
   </trkpt>
   <trkpt lat="-41.34313" lon="174.94523">
    <ele>106.46000000000001</ele>
   </trkpt>
   <trkpt lat="-41.34313" lon="174.94546000000003">
    <ele>107.69000000000001</ele>
   </trkpt>
   <trkpt lat="-41.34308" lon="174.94600000000003">
    <ele>110.32000000000001</ele>
   </trkpt>
   <trkpt lat="-41.34295" lon="174.94639">
    <ele>110.67</ele>
   </trkpt>
   <trkpt lat="-41.342760000000006" lon="174.94641000000001">
    <ele>112.38000000000001</ele>
   </trkpt>
   <trkpt lat="-41.3427" lon="174.94675">
    <ele>115.25</ele>
   </trkpt>
   <trkpt lat="-41.34252" lon="174.94712">
    <ele>115.78</ele>
   </trkpt>
   <trkpt lat="-41.34223" lon="174.94726000000003">
    <ele>113.76</ele>
   </trkpt>
   <trkpt lat="-41.34225" lon="174.94746">
    <ele>113.30000000000001</ele>
   </trkpt>
   <trkpt lat="-41.3421" lon="174.94752000000003">
    <ele>113.80000000000001</ele>
   </trkpt>
   <trkpt lat="-41.34203" lon="174.94772">
    <ele>115.5</ele>
   </trkpt>
   <trkpt lat="-41.34185" lon="174.94785000000002">
    <ele>116.94000000000001</ele>
   </trkpt>
   <trkpt lat="-41.34185" lon="174.94812000000002">
    <ele>118.12</ele>
   </trkpt>
   <trkpt lat="-41.34196" lon="174.94832000000002">
    <ele>120.32000000000001</ele>
   </trkpt>
   <trkpt lat="-41.34192" lon="174.94879">
    <ele>123.02</ele>
   </trkpt>
   <trkpt lat="-41.34183" lon="174.94926">
    <ele>128.98000000000002</ele>
   </trkpt>
   <trkpt lat="-41.34192" lon="174.94953">
    <ele>133.54000000000002</ele>
   </trkpt>
   <trkpt lat="-41.34201" lon="174.94964000000002">
    <ele>134.72</ele>
   </trkpt>
   <trkpt lat="-41.34203" lon="174.94969">
    <ele>134.87</ele>
   </trkpt>
   <trkpt lat="-41.341950000000004" lon="174.94989">
    <ele>134.85</ele>
   </trkpt>
   <trkpt lat="-41.341910000000006" lon="174.95010000000002">
    <ele>134.47</ele>
   </trkpt>
   <trkpt lat="-41.34181" lon="174.95034">
    <ele>134.23000000000002</ele>
   </trkpt>
   <trkpt lat="-41.34176" lon="174.95065000000002">
    <ele>135.48000000000002</ele>
   </trkpt>
   <trkpt lat="-41.34183" lon="174.95085">
    <ele>135.42000000000002</ele>
   </trkpt>
   <trkpt lat="-41.34158" lon="174.95180000000002">
    <ele>141.37000000000003</ele>
   </trkpt>
   <trkpt lat="-41.34154" lon="174.95246">
    <ele>141.9</ele>
   </trkpt>
   <trkpt lat="-41.34167" lon="174.95297000000002">
    <ele>139.68</ele>
   </trkpt>
   <trkpt lat="-41.34187" lon="174.95321">
    <ele>142.13</ele>
   </trkpt>
   <trkpt lat="-41.34165" lon="174.95334000000003">
    <ele>144.03000000000003</ele>
   </trkpt>
   <trkpt lat="-41.3414" lon="174.95353">
    <ele>145.16</ele>
   </trkpt>
   <trkpt lat="-41.34136" lon="174.95413000000002">
    <ele>148.26</ele>
   </trkpt>
   <trkpt lat="-41.34159500111734" lon="174.95464499807477">
    <ele>154.86</ele>
   </trkpt>
   <trkpt lat="-41.34183" lon="174.95516">
    <ele>158.5</ele>
   </trkpt>
   <trkpt lat="-41.34163" lon="174.95592000000002">
    <ele>159.32999999999998</ele>
   </trkpt>
   <trkpt lat="-41.34178" lon="174.95623">
    <ele>162.11</ele>
   </trkpt>
   <trkpt lat="-41.34163" lon="174.95653000000001">
    <ele>166.58</ele>
   </trkpt>
   <trkpt lat="-41.34158" lon="174.95696">
    <ele>170.70000000000002</ele>
   </trkpt>
   <trkpt lat="-41.34142000000001" lon="174.95739">
    <ele>174.61</ele>
   </trkpt>
   <trkpt lat="-41.34125" lon="174.9576">
    <ele>176.27</ele>
   </trkpt>
   <trkpt lat="-41.341150000000006" lon="174.95803">
    <ele>177.19</ele>
   </trkpt>
   <trkpt lat="-41.34105" lon="174.95811">
    <ele>177.05</ele>
   </trkpt>
   <trkpt lat="-41.34091" lon="174.95839">
    <ele>175.65</ele>
   </trkpt>
   <trkpt lat="-41.34087" lon="174.95863000000003">
    <ele>175.63</ele>
   </trkpt>
   <trkpt lat="-41.34071" lon="174.95880000000002">
    <ele>176.55</ele>
   </trkpt>
   <trkpt lat="-41.34071" lon="174.95911">
    <ele>176.23000000000002</ele>
   </trkpt>
   <trkpt lat="-41.34067" lon="174.95913000000002">
    <ele>176.23000000000002</ele>
   </trkpt>
   <trkpt lat="-41.34049" lon="174.95936">
    <ele>177.19</ele>
   </trkpt>
   <trkpt lat="-41.34051" lon="174.95961000000003">
    <ele>179.05</ele>
   </trkpt>
   <trkpt lat="-41.34035" lon="174.95974">
    <ele>177.72000000000003</ele>
   </trkpt>
   <trkpt lat="-41.3404" lon="174.96001">
    <ele>177.54</ele>
   </trkpt>
   <trkpt lat="-41.34037" lon="174.96031000000002">
    <ele>179.34000000000003</ele>
   </trkpt>
   <trkpt lat="-41.34026" lon="174.96054">
    <ele>180.04</ele>
   </trkpt>
   <trkpt lat="-41.34026" lon="174.96071">
    <ele>179.85</ele>
   </trkpt>
   <trkpt lat="-41.34022" lon="174.96084000000002">
    <ele>180.29</ele>
   </trkpt>
   <trkpt lat="-41.34033" lon="174.96117">
    <ele>181.95000000000002</ele>
   </trkpt>
   <trkpt lat="-41.34046" lon="174.96143">
    <ele>184.85000000000002</ele>
   </trkpt>
   <trkpt lat="-41.34042" lon="174.96149000000003">
    <ele>184.85000000000002</ele>
   </trkpt>
   <trkpt lat="-41.34044" lon="174.96164000000002">
    <ele>185.39000000000001</ele>
   </trkpt>
   <trkpt lat="-41.34058" lon="174.96192000000002">
    <ele>186.48</ele>
   </trkpt>
   <trkpt lat="-41.34058" lon="174.96236000000002">
    <ele>188.37</ele>
   </trkpt>
   <trkpt lat="-41.34062" lon="174.96276">
    <ele>191.12</ele>
   </trkpt>
   <trkpt lat="-41.340590000000006" lon="174.96293000000003">
    <ele>191.02</ele>
   </trkpt>
   <trkpt lat="-41.340590000000006" lon="174.96301000000003">
    <ele>191.02</ele>
   </trkpt>
   <trkpt lat="-41.340750001925436" lon="174.96367499841435">
    <ele>193.11</ele>
   </trkpt>
   <trkpt lat="-41.34091" lon="174.96434000000002">
    <ele>194.28</ele>
   </trkpt>
   <trkpt lat="-41.34089" lon="174.9644">
    <ele>194.46</ele>
   </trkpt>
   <trkpt lat="-41.34091" lon="174.96447">
    <ele>194.97</ele>
   </trkpt>
   <trkpt lat="-41.34078" lon="174.96489000000003">
    <ele>197.24</ele>
   </trkpt>
   <trkpt lat="-41.34073" lon="174.96494">
    <ele>197.47</ele>
   </trkpt>
   <trkpt lat="-41.34087" lon="174.96525000000003">
    <ele>198.38000000000002</ele>
   </trkpt>
   <trkpt lat="-41.34089" lon="174.96550000000002">
    <ele>198.34</ele>
   </trkpt>
   <trkpt lat="-41.340880000000006" lon="174.96567000000002">
    <ele>198.03</ele>
   </trkpt>
   <trkpt lat="-41.3408" lon="174.96574">
    <ele>198.01000000000002</ele>
   </trkpt>
   <trkpt lat="-41.34082" lon="174.96592">
    <ele>198.07000000000002</ele>
   </trkpt>
   <trkpt lat="-41.34089" lon="174.96613000000002">
    <ele>198.19</ele>
   </trkpt>
   <trkpt lat="-41.3408" lon="174.96648000000002">
    <ele>198.72</ele>
   </trkpt>
   <trkpt lat="-41.34089" lon="174.96663">
    <ele>199.43</ele>
   </trkpt>
   <trkpt lat="-41.3408" lon="174.96691">
    <ele>199.8</ele>
   </trkpt>
   <trkpt lat="-41.34082" lon="174.96721000000002">
    <ele>200.22</ele>
   </trkpt>
   <trkpt lat="-41.34075" lon="174.96746000000002">
    <ele>200.46000000000004</ele>
   </trkpt>
   <trkpt lat="-41.34078" lon="174.96777">
    <ele>199.85000000000002</ele>
   </trkpt>
   <trkpt lat="-41.34073" lon="174.96793000000002">
    <ele>199.01000000000002</ele>
   </trkpt>
   <trkpt lat="-41.34073" lon="174.96812000000003">
    <ele>198.62</ele>
   </trkpt>
   <trkpt lat="-41.34082" lon="174.96834">
    <ele>198.81</ele>
   </trkpt>
   <trkpt lat="-41.3408" lon="174.96855000000002">
    <ele>198.62</ele>
   </trkpt>
   <trkpt lat="-41.34073" lon="174.96893">
    <ele>197.51000000000002</ele>
   </trkpt>
   <trkpt lat="-41.34073" lon="174.96915">
    <ele>196.58</ele>
   </trkpt>
   <trkpt lat="-41.34084" lon="174.96941">
    <ele>196.21</ele>
   </trkpt>
   <trkpt lat="-41.34089" lon="174.96962000000002">
    <ele>196.26000000000002</ele>
   </trkpt>
   <trkpt lat="-41.34089" lon="174.96983">
    <ele>196.36</ele>
   </trkpt>
   <trkpt lat="-41.3408" lon="174.9701">
    <ele>194.21</ele>
   </trkpt>
   <trkpt lat="-41.34078" lon="174.97049">
    <ele>191.49</ele>
   </trkpt>
   <trkpt lat="-41.34064" lon="174.97094">
    <ele>188.03</ele>
   </trkpt>
   <trkpt lat="-41.34049" lon="174.97105000000002">
    <ele>186.71</ele>
   </trkpt>
   <trkpt lat="-41.34042" lon="174.97118">
    <ele>185.60000000000002</ele>
   </trkpt>
   <trkpt lat="-41.34042" lon="174.97129">
    <ele>184.58</ele>
   </trkpt>
   <trkpt lat="-41.34028" lon="174.97145">
    <ele>182.00000000000003</ele>
   </trkpt>
   <trkpt lat="-41.34028" lon="174.97159000000002">
    <ele>180.35</ele>
   </trkpt>
   <trkpt lat="-41.34022" lon="174.97173">
    <ele>179.56000000000003</ele>
   </trkpt>
   <trkpt lat="-41.340320000000006" lon="174.97194000000002">
    <ele>177.42000000000002</ele>
   </trkpt>
   <trkpt lat="-41.34022" lon="174.97212000000002">
    <ele>174.88</ele>
   </trkpt>
   <trkpt lat="-41.340360000000004" lon="174.97218">
    <ele>172.66</ele>
   </trkpt>
   <trkpt lat="-41.340410000000006" lon="174.97247000000002">
    <ele>170.73000000000002</ele>
   </trkpt>
   <trkpt lat="-41.340320000000006" lon="174.97276000000002">
    <ele>168.94</ele>
   </trkpt>
   <trkpt lat="-41.34035" lon="174.97305">
    <ele>166.91</ele>
   </trkpt>
   <trkpt lat="-41.34044" lon="174.97309">
    <ele>166.12</ele>
   </trkpt>
   <trkpt lat="-41.340450000000004" lon="174.97320000000002">
    <ele>166.67000000000002</ele>
   </trkpt>
   <trkpt lat="-41.34051" lon="174.97340000000003">
    <ele>167.23000000000002</ele>
   </trkpt>
   <trkpt lat="-41.3406" lon="174.97361">
    <ele>167.14000000000001</ele>
   </trkpt>
   <trkpt lat="-41.34073" lon="174.97363">
    <ele>166.64000000000001</ele>
   </trkpt>
   <trkpt lat="-41.34089" lon="174.97382000000002">
    <ele>164.91</ele>
   </trkpt>
   <trkpt lat="-41.3408" lon="174.97400000000002">
    <ele>164.23000000000002</ele>
   </trkpt>
   <trkpt lat="-41.34109" lon="174.97409000000002">
    <ele>162.27</ele>
   </trkpt>
   <trkpt lat="-41.34109" lon="174.97419000000002">
    <ele>161.93</ele>
   </trkpt>
   <trkpt lat="-41.34125" lon="174.97427000000002">
    <ele>160.28</ele>
   </trkpt>
   <trkpt lat="-41.34138" lon="174.97428000000002">
    <ele>159.25</ele>
   </trkpt>
   <trkpt lat="-41.341350000000006" lon="174.97466000000003">
    <ele>155.63000000000002</ele>
   </trkpt>
   <trkpt lat="-41.34122" lon="174.97483000000003">
    <ele>153.46</ele>
   </trkpt>
   <trkpt lat="-41.3412" lon="174.97507000000002">
    <ele>151.06</ele>
   </trkpt>
   <trkpt lat="-41.34111" lon="174.97512">
    <ele>148.15</ele>
   </trkpt>
   <trkpt lat="-41.341060000000006" lon="174.97558">
    <ele>140.56</ele>
   </trkpt>
   <trkpt lat="-41.34087" lon="174.97582000000003">
    <ele>136.14000000000001</ele>
   </trkpt>
   <trkpt lat="-41.34078" lon="174.97578000000001">
    <ele>134.45000000000002</ele>
   </trkpt>
   <trkpt lat="-41.34073" lon="174.97557">
    <ele>132.65</ele>
   </trkpt>
   <trkpt lat="-41.34051" lon="174.97560000000001">
    <ele>126.89</ele>
   </trkpt>
   <trkpt lat="-41.34082" lon="174.97605000000001">
    <ele>123.06000000000002</ele>
   </trkpt>
   <trkpt lat="-41.340790000000005" lon="174.97642000000002">
    <ele>120.14000000000001</ele>
   </trkpt>
   <trkpt lat="-41.34057000000001" lon="174.97660000000002">
    <ele>120.08</ele>
   </trkpt>
   <trkpt lat="-41.3406" lon="174.97676">
    <ele>121.08</ele>
   </trkpt>
   <trkpt lat="-41.34067" lon="174.97689000000003">
    <ele>120.38000000000001</ele>
   </trkpt>
   <trkpt lat="-41.34071" lon="174.97711">
    <ele>118.74000000000001</ele>
   </trkpt>
   <trkpt lat="-41.34069" lon="174.97724000000002">
    <ele>119.11</ele>
   </trkpt>
   <trkpt lat="-41.340630000000004" lon="174.97734000000003">
    <ele>120.37</ele>
   </trkpt>
   <trkpt lat="-41.34055" lon="174.97739">
    <ele>120.78000000000002</ele>
   </trkpt>
   <trkpt lat="-41.34044" lon="174.97741000000002">
    <ele>121.46000000000001</ele>
   </trkpt>
   <trkpt lat="-41.34035" lon="174.97752000000003">
    <ele>121.77</ele>
   </trkpt>
   <trkpt lat="-41.3404" lon="174.97767000000002">
    <ele>123.12</ele>
   </trkpt>
   <trkpt lat="-41.34033" lon="174.97782">
    <ele>125.84</ele>
   </trkpt>
   <trkpt lat="-41.34004" lon="174.97805000000002">
    <ele>133.06</ele>
   </trkpt>
   <trkpt lat="-41.34004" lon="174.97797000000003">
    <ele>132.98000000000002</ele>
   </trkpt>
   <trkpt lat="-41.339960000000005" lon="174.97804000000002">
    <ele>133.45000000000002</ele>
   </trkpt>
   <trkpt lat="-41.33979" lon="174.97841000000003">
    <ele>140.68</ele>
   </trkpt>
   <trkpt lat="-41.33966" lon="174.97848000000002">
    <ele>143.94</ele>
   </trkpt>
   <trkpt lat="-41.33939" lon="174.97852">
    <ele>149.33</ele>
   </trkpt>
   <trkpt lat="-41.33925" lon="174.97865000000002">
    <ele>151.03000000000003</ele>
   </trkpt>
   <trkpt lat="-41.33912" lon="174.97867000000002">
    <ele>151.16000000000003</ele>
   </trkpt>
   <trkpt lat="-41.33894" lon="174.97888">
    <ele>148.99</ele>
   </trkpt>
   <trkpt lat="-41.33881" lon="174.97919000000002">
    <ele>148.76</ele>
   </trkpt>
   <trkpt lat="-41.33872" lon="174.97931000000003">
    <ele>148.57</ele>
   </trkpt>
   <trkpt lat="-41.33852" lon="174.97945">
    <ele>149.72000000000003</ele>
   </trkpt>
   <trkpt lat="-41.33836" lon="174.97969">
    <ele>154.64</ele>
   </trkpt>
   <trkpt lat="-41.33838" lon="174.97981000000001">
    <ele>155.87</ele>
   </trkpt>
   <trkpt lat="-41.33831" lon="174.97994000000003">
    <ele>156.46</ele>
   </trkpt>
   <trkpt lat="-41.338" lon="174.9804">
    <ele>153.59</ele>
   </trkpt>
   <trkpt lat="-41.33755" lon="174.98004">
    <ele>155.27</ele>
   </trkpt>
   <trkpt lat="-41.33735" lon="174.97995">
    <ele>156.88000000000002</ele>
   </trkpt>
   <trkpt lat="-41.33737" lon="174.97976000000003">
    <ele>157.13000000000002</ele>
   </trkpt>
   <trkpt lat="-41.33704" lon="174.97955000000002">
    <ele>157.14</ele>
   </trkpt>
   <trkpt lat="-41.33652" lon="174.97975000000002">
    <ele>156.94000000000003</ele>
   </trkpt>
   <trkpt lat="-41.33652" lon="174.97968">
    <ele>156.93</ele>
   </trkpt>
   <trkpt lat="-41.33608" lon="174.98003000000003">
    <ele>155.93</ele>
   </trkpt>
   <trkpt lat="-41.33619" lon="174.98017000000002">
    <ele>155.59</ele>
   </trkpt>
   <trkpt lat="-41.33614" lon="174.98018000000002">
    <ele>155.45</ele>
   </trkpt>
   <trkpt lat="-41.3361" lon="174.98032">
    <ele>154.93</ele>
   </trkpt>
   <trkpt lat="-41.336000000000006" lon="174.98045000000002">
    <ele>154.84</ele>
   </trkpt>
   <trkpt lat="-41.33583" lon="174.98102">
    <ele>155.7</ele>
   </trkpt>
   <trkpt lat="-41.335710000000006" lon="174.98116000000002">
    <ele>154.82000000000002</ele>
   </trkpt>
   <trkpt lat="-41.3359" lon="174.98152000000002">
    <ele>150.28000000000003</ele>
   </trkpt>
   <trkpt lat="-41.33585" lon="174.98165">
    <ele>149.52</ele>
   </trkpt>
   <trkpt lat="-41.33585" lon="174.98201">
    <ele>148.03000000000003</ele>
   </trkpt>
   <trkpt lat="-41.33563" lon="174.9823">
    <ele>147.85</ele>
   </trkpt>
   <trkpt lat="-41.33579" lon="174.98272">
    <ele>148.62</ele>
   </trkpt>
   <trkpt lat="-41.33554" lon="174.9831">
    <ele>150.03000000000003</ele>
   </trkpt>
   <trkpt lat="-41.33534" lon="174.98318">
    <ele>152.81</ele>
   </trkpt>
   <trkpt lat="-41.33529" lon="174.98328">
    <ele>153.37</ele>
   </trkpt>
   <trkpt lat="-41.33502" lon="174.98344">
    <ele>156.01000000000002</ele>
   </trkpt>
   <trkpt lat="-41.33491" lon="174.98399">
    <ele>158.41000000000003</ele>
   </trkpt>
   <trkpt lat="-41.33478" lon="174.98431000000002">
    <ele>160.46</ele>
   </trkpt>
   <trkpt lat="-41.33424" lon="174.98472">
    <ele>164.97</ele>
   </trkpt>
   <trkpt lat="-41.3339" lon="174.98481">
    <ele>160.74</ele>
   </trkpt>
   <trkpt lat="-41.33386" lon="174.98492000000002">
    <ele>160.57999999999998</ele>
   </trkpt>
   <trkpt lat="-41.33395" lon="174.98501000000002">
    <ele>161.09</ele>
   </trkpt>
   <trkpt lat="-41.33413" lon="174.98534">
    <ele>159.4</ele>
   </trkpt>
   <trkpt lat="-41.334120000000006" lon="174.98579">
    <ele>156.92</ele>
   </trkpt>
   <trkpt lat="-41.33422" lon="174.98636000000002">
    <ele>148.57</ele>
   </trkpt>
   <trkpt lat="-41.33415" lon="174.98657">
    <ele>146.72000000000003</ele>
   </trkpt>
   <trkpt lat="-41.33393" lon="174.98683000000003">
    <ele>139.18</ele>
   </trkpt>
   <trkpt lat="-41.333830000000006" lon="174.98709000000002">
    <ele>136.35</ele>
   </trkpt>
   <trkpt lat="-41.33375" lon="174.98738">
    <ele>133.02</ele>
   </trkpt>
   <trkpt lat="-41.33379" lon="174.98757">
    <ele>131.69</ele>
   </trkpt>
   <trkpt lat="-41.33368" lon="174.98763000000002">
    <ele>131.17000000000002</ele>
   </trkpt>
   <trkpt lat="-41.33346" lon="174.98786">
    <ele>130.73000000000002</ele>
   </trkpt>
   <trkpt lat="-41.33357" lon="174.98804">
    <ele>131.04000000000002</ele>
   </trkpt>
   <trkpt lat="-41.333360000000006" lon="174.98829">
    <ele>131.54000000000002</ele>
   </trkpt>
   <trkpt lat="-41.33346" lon="174.98844000000003">
    <ele>131.59</ele>
   </trkpt>
   <trkpt lat="-41.33335" lon="174.98867">
    <ele>132.87</ele>
   </trkpt>
   <trkpt lat="-41.33335" lon="174.98884">
    <ele>133.34</ele>
   </trkpt>
   <trkpt lat="-41.33328" lon="174.98896000000002">
    <ele>132.54000000000002</ele>
   </trkpt>
   <trkpt lat="-41.33276" lon="174.98921">
    <ele>134.61</ele>
   </trkpt>
   <trkpt lat="-41.33281" lon="174.98933000000002">
    <ele>135.35</ele>
   </trkpt>
   <trkpt lat="-41.33288" lon="174.98940000000002">
    <ele>135.91</ele>
   </trkpt>
   <trkpt lat="-41.33254" lon="174.98967000000002">
    <ele>136.07000000000002</ele>
   </trkpt>
   <trkpt lat="-41.33249" lon="174.98984000000002">
    <ele>135.55</ele>
   </trkpt>
   <trkpt lat="-41.33252" lon="174.99023000000003">
    <ele>134.29000000000002</ele>
   </trkpt>
   <trkpt lat="-41.33234" lon="174.99065000000002">
    <ele>134.20000000000002</ele>
   </trkpt>
   <trkpt lat="-41.33229" lon="174.99101000000002">
    <ele>134.82000000000002</ele>
   </trkpt>
   <trkpt lat="-41.33218" lon="174.99105">
    <ele>134.82000000000002</ele>
   </trkpt>
   <trkpt lat="-41.33214" lon="174.99136000000001">
    <ele>135.28</ele>
   </trkpt>
   <trkpt lat="-41.33207" lon="174.99164000000002">
    <ele>135.75</ele>
   </trkpt>
   <trkpt lat="-41.33191" lon="174.99189">
    <ele>136.03</ele>
   </trkpt>
   <trkpt lat="-41.33175000000001" lon="174.99229000000003">
    <ele>136.59</ele>
   </trkpt>
   <trkpt lat="-41.331390000000006" lon="174.99268">
    <ele>136.96</ele>
   </trkpt>
   <trkpt lat="-41.33095" lon="174.99332">
    <ele>138.33</ele>
   </trkpt>
   <trkpt lat="-41.330920000000006" lon="174.9933">
    <ele>138.33</ele>
   </trkpt>
   <trkpt lat="-41.33088" lon="174.99351000000001">
    <ele>138.46</ele>
   </trkpt>
   <trkpt lat="-41.33077" lon="174.99361000000002">
    <ele>138.67000000000002</ele>
   </trkpt>
   <trkpt lat="-41.33037" lon="174.99372000000002">
    <ele>139.44</ele>
   </trkpt>
   <trkpt lat="-41.33037" lon="174.99399000000003">
    <ele>139.91</ele>
   </trkpt>
   <trkpt lat="-41.33017" lon="174.99445">
    <ele>142.76</ele>
   </trkpt>
   <trkpt lat="-41.33017" lon="174.99457">
    <ele>143.12000000000003</ele>
   </trkpt>
   <trkpt lat="-41.32994" lon="174.99484">
    <ele>144.71</ele>
   </trkpt>
   <trkpt lat="-41.32981" lon="174.99512000000001">
    <ele>142.56000000000003</ele>
   </trkpt>
   <trkpt lat="-41.32976" lon="174.99515000000002">
    <ele>142.45000000000002</ele>
   </trkpt>
   <trkpt lat="-41.32976" lon="174.99560000000002">
    <ele>141.8</ele>
   </trkpt>
   <trkpt lat="-41.32972" lon="174.99569000000002">
    <ele>142.13</ele>
   </trkpt>
   <trkpt lat="-41.32956" lon="174.99562">
    <ele>142.15</ele>
   </trkpt>
   <trkpt lat="-41.329420000000006" lon="174.99585000000002">
    <ele>141.58</ele>
   </trkpt>
   <trkpt lat="-41.3292" lon="174.99654">
    <ele>142.43</ele>
   </trkpt>
   <trkpt lat="-41.32909" lon="174.99674000000002">
    <ele>144.67000000000002</ele>
   </trkpt>
   <trkpt lat="-41.32911" lon="174.99687">
    <ele>147.6</ele>
   </trkpt>
   <trkpt lat="-41.32916" lon="174.99687">
    <ele>148.7</ele>
   </trkpt>
   <trkpt lat="-41.32902" lon="174.99701000000002">
    <ele>153.2</ele>
   </trkpt>
   <trkpt lat="-41.328770000000006" lon="174.99763000000002">
    <ele>155.56</ele>
   </trkpt>
   <trkpt lat="-41.3286" lon="174.99757000000002">
    <ele>158.47</ele>
   </trkpt>
   <trkpt lat="-41.32855" lon="174.99772000000002">
    <ele>158.94000000000003</ele>
   </trkpt>
   <trkpt lat="-41.3284" lon="174.99791000000002">
    <ele>161.65</ele>
   </trkpt>
   <trkpt lat="-41.32851" lon="174.99803000000003">
    <ele>162.17000000000002</ele>
   </trkpt>
   <trkpt lat="-41.32849" lon="174.99814">
    <ele>162.87</ele>
   </trkpt>
   <trkpt lat="-41.32842" lon="174.99831">
    <ele>164.15</ele>
   </trkpt>
   <trkpt lat="-41.3284" lon="174.99825">
    <ele>164.55</ele>
   </trkpt>
   <trkpt lat="-41.32817" lon="174.9986">
    <ele>165.07000000000002</ele>
   </trkpt>
   <trkpt lat="-41.32813" lon="174.99874000000003">
    <ele>165.45000000000002</ele>
   </trkpt>
   <trkpt lat="-41.328210000000006" lon="174.99876">
    <ele>165.55</ele>
   </trkpt>
   <trkpt lat="-41.32822" lon="174.99892000000003">
    <ele>165.57000000000002</ele>
   </trkpt>
   <trkpt lat="-41.32815" lon="174.99909000000002">
    <ele>164.70000000000002</ele>
   </trkpt>
   <trkpt lat="-41.32793" lon="174.99944000000002">
    <ele>156.41000000000003</ele>
   </trkpt>
   <trkpt lat="-41.327540000000006" lon="174.99989000000002">
    <ele>144.68</ele>
   </trkpt>
   <trkpt lat="-41.32753" lon="175.00007000000002">
    <ele>144.52</ele>
   </trkpt>
   <trkpt lat="-41.32757" lon="175.00022">
    <ele>144.50000000000003</ele>
   </trkpt>
   <trkpt lat="-41.32741" lon="175.00031">
    <ele>144.41</ele>
   </trkpt>
   <trkpt lat="-41.32744" lon="175.00050000000002">
    <ele>143.84000000000003</ele>
   </trkpt>
   <trkpt lat="-41.32732" lon="175.00064">
    <ele>143.74</ele>
   </trkpt>
   <trkpt lat="-41.32728" lon="175.00093">
    <ele>144.59000000000003</ele>
   </trkpt>
   <trkpt lat="-41.32705" lon="175.00126">
    <ele>145.07</ele>
   </trkpt>
   <trkpt lat="-41.32685" lon="175.00175000000002">
    <ele>148.12</ele>
   </trkpt>
   <trkpt lat="-41.32663" lon="175.00199">
    <ele>146.51</ele>
   </trkpt>
   <trkpt lat="-41.326710000000006" lon="175.00318000000001">
    <ele>143.97</ele>
   </trkpt>
   <trkpt lat="-41.32667" lon="175.00331000000003">
    <ele>143.87000000000003</ele>
   </trkpt>
   <trkpt lat="-41.32672" lon="175.00335">
    <ele>143.78000000000003</ele>
   </trkpt>
   <trkpt lat="-41.32683" lon="175.00395">
    <ele>145.08</ele>
   </trkpt>
   <trkpt lat="-41.32678000000001" lon="175.00421">
    <ele>145.98</ele>
   </trkpt>
   <trkpt lat="-41.32654" lon="175.00410000000002">
    <ele>146.65</ele>
   </trkpt>
   <trkpt lat="-41.32605" lon="175.00402000000003">
    <ele>155.60000000000002</ele>
   </trkpt>
   <trkpt lat="-41.32578" lon="175.00406">
    <ele>162.42000000000002</ele>
   </trkpt>
   <trkpt lat="-41.32517" lon="175.00388">
    <ele>179.92000000000002</ele>
   </trkpt>
   <trkpt lat="-41.32511" lon="175.00359">
    <ele>185.09</ele>
   </trkpt>
   <trkpt lat="-41.32542" lon="175.00342">
    <ele>194.23000000000002</ele>
   </trkpt>
   <trkpt lat="-41.32571" lon="175.0029">
    <ele>208.50000000000003</ele>
   </trkpt>
   <trkpt lat="-41.32562" lon="175.00239000000002">
    <ele>228.33</ele>
   </trkpt>
   <trkpt lat="-41.32538" lon="175.00221000000002">
    <ele>238.43000000000004</ele>
   </trkpt>
   <trkpt lat="-41.32522" lon="175.00183">
    <ele>250.41000000000003</ele>
   </trkpt>
   <trkpt lat="-41.32461" lon="175.00170000000003">
    <ele>271.28000000000003</ele>
   </trkpt>
   <trkpt lat="-41.32437" lon="175.00148000000002">
    <ele>276.06</ele>
   </trkpt>
   <trkpt lat="-41.3243" lon="175.0011">
    <ele>288.48</ele>
   </trkpt>
   <trkpt lat="-41.32453" lon="175.00076">
    <ele>297.47</ele>
   </trkpt>
   <trkpt lat="-41.32455" lon="175.00050000000002">
    <ele>303.49</ele>
   </trkpt>
   <trkpt lat="-41.32394" lon="175.00011">
    <ele>329.67</ele>
   </trkpt>
   <trkpt lat="-41.323600000000006" lon="175.00003">
    <ele>337.84000000000003</ele>
   </trkpt>
   <trkpt lat="-41.323600000000006" lon="174.99964000000003">
    <ele>346.59</ele>
   </trkpt>
   <trkpt lat="-41.32341" lon="174.99973000000003">
    <ele>349.30000000000007</ele>
   </trkpt>
   <trkpt lat="-41.32343" lon="174.99947">
    <ele>357.40000000000003</ele>
   </trkpt>
   <trkpt lat="-41.323170000000005" lon="174.99925000000002">
    <ele>357.40000000000003</ele>
   </trkpt>
   <trkpt lat="-41.3228" lon="174.99861">
    <ele>378.6</ele>
   </trkpt>
   <trkpt lat="-41.322570000000006" lon="174.99831">
    <ele>390.84000000000003</ele>
   </trkpt>
   <trkpt lat="-41.3222" lon="174.99831">
    <ele>402.49</ele>
   </trkpt>
   <trkpt lat="-41.32173" lon="174.99835000000002">
    <ele>407.41</ele>
   </trkpt>
   <trkpt lat="-41.32123" lon="174.99818000000002">
    <ele>413.56</ele>
   </trkpt>
   <trkpt lat="-41.32101" lon="174.99745000000001">
    <ele>425.19</ele>
   </trkpt>
   <trkpt lat="-41.32061" lon="174.99728000000002">
    <ele>435.87</ele>
   </trkpt>
   <trkpt lat="-41.32043" lon="174.99685000000002">
    <ele>444.68</ele>
   </trkpt>
   <trkpt lat="-41.31996" lon="174.99651">
    <ele>460.48</ele>
   </trkpt>
   <trkpt lat="-41.319390000000006" lon="174.99607">
    <ele>478.04</ele>
   </trkpt>
   <trkpt lat="-41.31875" lon="174.99629000000002">
    <ele>476.93</ele>
   </trkpt>
   <trkpt lat="-41.31815" lon="174.99681">
    <ele>475.45000000000005</ele>
   </trkpt>
   <trkpt lat="-41.31736" lon="174.99719000000002">
    <ele>475.40000000000003</ele>
   </trkpt>
   <trkpt lat="-41.31676" lon="174.99762">
    <ele>472.85</ele>
   </trkpt>
   <trkpt lat="-41.31613" lon="174.99814">
    <ele>478.24000000000007</ele>
   </trkpt>
   <trkpt lat="-41.315580000000004" lon="174.99853000000002">
    <ele>489.27000000000004</ele>
   </trkpt>
   <trkpt lat="-41.31477" lon="174.99874000000003">
    <ele>501.0800000000001</ele>
   </trkpt>
   <trkpt lat="-41.31418" lon="174.99917000000002">
    <ele>507.45000000000005</ele>
   </trkpt>
   <trkpt lat="-41.31354000057697" lon="174.99880499641677">
    <ele>508.01000000000005</ele>
   </trkpt>
   <trkpt lat="-41.312900000000006" lon="174.99844000000002">
    <ele>512.59</ele>
   </trkpt>
   <trkpt lat="-41.3125" lon="174.99801000000002">
    <ele>521.34</ele>
   </trkpt>
   <trkpt lat="-41.31188" lon="174.99792000000002">
    <ele>527.1600000000001</ele>
   </trkpt>
   <trkpt lat="-41.31134" lon="174.99767000000003">
    <ele>530.6200000000001</ele>
   </trkpt>
   <trkpt lat="-41.31069" lon="174.99728000000002">
    <ele>531.6500000000001</ele>
   </trkpt>
   <trkpt lat="-41.30995" lon="174.99702000000002">
    <ele>544.13</ele>
   </trkpt>
   <trkpt lat="-41.3093" lon="174.99676000000002">
    <ele>554.1700000000001</ele>
   </trkpt>
   <trkpt lat="-41.30892" lon="174.99625">
    <ele>559.88</ele>
   </trkpt>
   <trkpt lat="-41.30843" lon="174.99573">
    <ele>571.2600000000001</ele>
   </trkpt>
   <trkpt lat="-41.307880000000004" lon="174.99505000000002">
    <ele>582.6300000000001</ele>
   </trkpt>
   <trkpt lat="-41.30709" lon="174.99518">
    <ele>582.9000000000001</ele>
   </trkpt>
   <trkpt lat="-41.30637" lon="174.99522000000002">
    <ele>585.1200000000001</ele>
   </trkpt>
   <trkpt lat="-41.30579" lon="174.99548000000001">
    <ele>580.64</ele>
   </trkpt>
   <trkpt lat="-41.30518" lon="174.99565">
    <ele>583.79</ele>
   </trkpt>
   <trkpt lat="-41.3046" lon="174.99569000000002">
    <ele>589.46</ele>
   </trkpt>
   <trkpt lat="-41.303810000000006" lon="174.99548000000001">
    <ele>599.63</ele>
   </trkpt>
   <trkpt lat="-41.30306" lon="174.99548000000001">
    <ele>609.3000000000001</ele>
   </trkpt>
   <trkpt lat="-41.30241" lon="174.99582">
    <ele>614.2200000000001</ele>
   </trkpt>
   <trkpt lat="-41.30189" lon="174.99616">
    <ele>615.35</ele>
   </trkpt>
   <trkpt lat="-41.30147" lon="174.99603000000002">
    <ele>619.2</ele>
   </trkpt>
   <trkpt lat="-41.30091" lon="174.99582">
    <ele>621.23</ele>
   </trkpt>
   <trkpt lat="-41.30008" lon="174.99561000000003">
    <ele>638.19</ele>
   </trkpt>
   <trkpt lat="-41.299510000000005" lon="174.99560000000002">
    <ele>646.5500000000001</ele>
   </trkpt>
   <trkpt lat="-41.29889" lon="174.99496000000002">
    <ele>637.73</ele>
   </trkpt>
   <trkpt lat="-41.29874" lon="174.9944">
    <ele>634.0</ele>
   </trkpt>
   <trkpt lat="-41.29831" lon="174.99428">
    <ele>627.32</ele>
   </trkpt>
   <trkpt lat="-41.29793" lon="174.99432000000002">
    <ele>620.4300000000001</ele>
   </trkpt>
   <trkpt lat="-41.29764" lon="174.99380000000002">
    <ele>614.74</ele>
   </trkpt>
   <trkpt lat="-41.29773" lon="174.99316000000002">
    <ele>607.6</ele>
   </trkpt>
   <trkpt lat="-41.29757" lon="174.99264000000002">
    <ele>602.99</ele>
   </trkpt>
   <trkpt lat="-41.29733" lon="174.99256000000003">
    <ele>597.57</ele>
   </trkpt>
   <trkpt lat="-41.29668" lon="174.99273000000002">
    <ele>588.6300000000001</ele>
   </trkpt>
   <trkpt lat="-41.29632" lon="174.99307000000002">
    <ele>586.5</ele>
   </trkpt>
   <trkpt lat="-41.29594" lon="174.99376">
    <ele>580.64</ele>
   </trkpt>
   <trkpt lat="-41.29558" lon="174.99346000000003">
    <ele>577.1500000000001</ele>
   </trkpt>
   <trkpt lat="-41.29538" lon="174.99282000000002">
    <ele>574.49</ele>
   </trkpt>
   <trkpt lat="-41.29522" lon="174.99209000000002">
    <ele>569.88</ele>
   </trkpt>
   <trkpt lat="-41.295" lon="174.99144">
    <ele>568.64</ele>
   </trkpt>
   <trkpt lat="-41.29466" lon="174.99136000000001">
    <ele>568.0</ele>
   </trkpt>
   <trkpt lat="-41.29435" lon="174.99166000000002">
    <ele>567.37</ele>
   </trkpt>
   <trkpt lat="-41.2939" lon="174.99222">
    <ele>567.13</ele>
   </trkpt>
   <trkpt lat="-41.29334" lon="174.99252">
    <ele>566.4</ele>
   </trkpt>
   <trkpt lat="-41.29283" lon="174.99286">
    <ele>566.55</ele>
   </trkpt>
   <trkpt lat="-41.2926" lon="174.99239">
    <ele>564.23</ele>
   </trkpt>
   <trkpt lat="-41.29268000234157" lon="174.99166000056846">
    <ele>561.9300000000001</ele>
   </trkpt>
   <trkpt lat="-41.29276" lon="174.99093000000002">
    <ele>555.39</ele>
   </trkpt>
   <trkpt lat="-41.29242" lon="174.99058000000002">
    <ele>555.86</ele>
   </trkpt>
   <trkpt lat="-41.29189" lon="174.99041000000003">
    <ele>555.2900000000001</ele>
   </trkpt>
   <trkpt lat="-41.29124" lon="174.99016">
    <ele>554.36</ele>
   </trkpt>
   <trkpt lat="-41.29043" lon="174.99007">
    <ele>554.27</ele>
   </trkpt>
   <trkpt lat="-41.29021" lon="174.99050000000003">
    <ele>551.84</ele>
   </trkpt>
   <trkpt lat="-41.28992" lon="174.99037">
    <ele>550.9900000000001</ele>
   </trkpt>
   <trkpt lat="-41.28943" lon="174.98994000000002">
    <ele>551.79</ele>
   </trkpt>
   <trkpt lat="-41.28898" lon="174.98947">
    <ele>550.88</ele>
   </trkpt>
   <trkpt lat="-41.28844" lon="174.98934000000003">
    <ele>552.61</ele>
   </trkpt>
   <trkpt lat="-41.288340000000005" lon="174.98892">
    <ele>551.91</ele>
   </trkpt>
   <trkpt lat="-41.28864" lon="174.98870000000002">
    <ele>548.35</ele>
   </trkpt>
   <trkpt lat="-41.28918" lon="174.98834000000002">
    <ele>547.25</ele>
   </trkpt>
   <trkpt lat="-41.28951" lon="174.98816000000002">
    <ele>553.83</ele>
   </trkpt>
   <trkpt lat="-41.28992" lon="174.98789000000002">
    <ele>557.08</ele>
   </trkpt>
   <trkpt lat="-41.29016" lon="174.98756">
    <ele>561.34</ele>
   </trkpt>
   <trkpt lat="-41.29077" lon="174.98721">
    <ele>569.11</ele>
   </trkpt>
   <trkpt lat="-41.29128" lon="174.98674000000003">
    <ele>562.52</ele>
   </trkpt>
   <trkpt lat="-41.292170000000006" lon="174.98661">
    <ele>567.8199999999999</ele>
   </trkpt>
   <trkpt lat="-41.29298" lon="174.98631">
    <ele>575.2700000000001</ele>
   </trkpt>
   <trkpt lat="-41.2933" lon="174.98571">
    <ele>568.98</ele>
   </trkpt>
   <trkpt lat="-41.29399" lon="174.98511000000002">
    <ele>570.04</ele>
   </trkpt>
   <trkpt lat="-41.294140000000006" lon="174.98442000000003">
    <ele>574.8199999999999</ele>
   </trkpt>
   <trkpt lat="-41.294140000000006" lon="174.98440000000002">
    <ele>574.8199999999999</ele>
   </trkpt>
   <trkpt lat="-41.294235001718626" lon="174.98377000090892">
    <ele>578.0000000000001</ele>
   </trkpt>
   <trkpt lat="-41.29433" lon="174.98314000000002">
    <ele>576.1200000000001</ele>
   </trkpt>
   <trkpt lat="-41.29466" lon="174.98211">
    <ele>569.71</ele>
   </trkpt>
   <trkpt lat="-41.29502000054097" lon="174.98172000227933">
    <ele>571.25</ele>
   </trkpt>
   <trkpt lat="-41.29538" lon="174.98133">
    <ele>578.99</ele>
   </trkpt>
   <trkpt lat="-41.29584000064231" lon="174.98093000286437">
    <ele>587.87</ele>
   </trkpt>
   <trkpt lat="-41.2963" lon="174.98053000000002">
    <ele>602.1200000000001</ele>
   </trkpt>
   <trkpt lat="-41.2969" lon="174.98065000000003">
    <ele>610.44</ele>
   </trkpt>
   <trkpt lat="-41.29764" lon="174.98082000000002">
    <ele>610.57</ele>
   </trkpt>
   <trkpt lat="-41.2981200000096" lon="174.98075500047955">
    <ele>609.1</ele>
   </trkpt>
   <trkpt lat="-41.2986" lon="174.98069">
    <ele>614.65</ele>
   </trkpt>
   <trkpt lat="-41.29934" lon="174.98065000000003">
    <ele>621.2800000000001</ele>
   </trkpt>
   <trkpt lat="-41.29981000009462" lon="174.98066999985986">
    <ele>629.47</ele>
   </trkpt>
   <trkpt lat="-41.30028" lon="174.98069">
    <ele>643.4000000000001</ele>
   </trkpt>
   <trkpt lat="-41.300610000000006" lon="174.98052">
    <ele>654.76</ele>
   </trkpt>
   <trkpt lat="-41.30109" lon="174.98069">
    <ele>662.44</ele>
   </trkpt>
   <trkpt lat="-41.30163500108842" lon="174.98022000381349">
    <ele>667.36</ele>
   </trkpt>
   <trkpt lat="-41.30218" lon="174.97975000000002">
    <ele>673.4300000000001</ele>
   </trkpt>
   <trkpt lat="-41.30234" lon="174.97906">
    <ele>670.1</ele>
   </trkpt>
   <trkpt lat="-41.302870000000006" lon="174.97883000000002">
    <ele>661.4000000000001</ele>
   </trkpt>
   <trkpt lat="-41.30373" lon="174.97850000000003">
    <ele>646.4300000000001</ele>
   </trkpt>
   <trkpt lat="-41.30415" lon="174.97850000000003">
    <ele>638.83</ele>
   </trkpt>
   <trkpt lat="-41.30456" lon="174.97812000000002">
    <ele>639.1600000000001</ele>
   </trkpt>
   <trkpt lat="-41.305365000055616" lon="174.97807500055296">
    <ele>635.47</ele>
   </trkpt>
   <trkpt lat="-41.30617" lon="174.97803000000002">
    <ele>641.49</ele>
   </trkpt>
   <trkpt lat="-41.306796666718405" lon="174.97804333307815">
    <ele>642.6700000000001</ele>
   </trkpt>
   <trkpt lat="-41.30742333343529" lon="174.97805666641253">
    <ele>647.5000000000001</ele>
   </trkpt>
   <trkpt lat="-41.30805" lon="174.97807">
    <ele>654.11</ele>
   </trkpt>
   <trkpt lat="-41.3084900033935" lon="174.9774400085625">
    <ele>651.6700000000001</ele>
   </trkpt>
   <trkpt lat="-41.30893000335217" lon="174.9768100086218">
    <ele>645.57</ele>
   </trkpt>
   <trkpt lat="-41.30937" lon="174.97618000000003">
    <ele>645.0400000000001</ele>
   </trkpt>
   <trkpt lat="-41.309615001281" lon="174.97564500191777">
    <ele>639.09</ele>
   </trkpt>
   <trkpt lat="-41.30986" lon="174.97511">
    <ele>637.8900000000001</ele>
   </trkpt>
   <trkpt lat="-41.31033" lon="174.97490000000002">
    <ele>642.8000000000001</ele>
   </trkpt>
   <trkpt lat="-41.310835000613196" lon="174.97455500260537">
    <ele>650.36</ele>
   </trkpt>
   <trkpt lat="-41.31134" lon="174.97421000000003">
    <ele>658.58</ele>
   </trkpt>
   <trkpt lat="-41.31206" lon="174.97404">
    <ele>673.0500000000001</ele>
   </trkpt>
   <trkpt lat="-41.31259" lon="174.97357000000002">
    <ele>686.83</ele>
   </trkpt>
   <trkpt lat="-41.31298500105002" lon="174.9730950027896">
    <ele>690.71</ele>
   </trkpt>
   <trkpt lat="-41.31338" lon="174.97262">
    <ele>688.09</ele>
   </trkpt>
   <trkpt lat="-41.31394" lon="174.97198">
    <ele>684.97</ele>
   </trkpt>
   <trkpt lat="-41.31472" lon="174.97172">
    <ele>670.21</ele>
   </trkpt>
   <trkpt lat="-41.31528000011511" lon="174.97155000146356">
    <ele>669.95</ele>
   </trkpt>
   <trkpt lat="-41.31584" lon="174.97138">
    <ele>666.1400000000001</ele>
   </trkpt>
   <trkpt lat="-41.31595" lon="174.97136">
    <ele>664.39</ele>
   </trkpt>
   <trkpt lat="-41.31609" lon="174.97140000000002">
    <ele>663.4000000000001</ele>
   </trkpt>
   <trkpt lat="-41.31629" lon="174.97104000000002">
    <ele>659.86</ele>
   </trkpt>
   <trkpt lat="-41.31627" lon="174.97086000000002">
    <ele>657.93</ele>
   </trkpt>
   <trkpt lat="-41.31633" lon="174.97073">
    <ele>656.4100000000001</ele>
   </trkpt>
   <trkpt lat="-41.3164" lon="174.97034000000002">
    <ele>649.6800000000001</ele>
   </trkpt>
   <trkpt lat="-41.31662" lon="174.96995">
    <ele>642.1</ele>
   </trkpt>
   <trkpt lat="-41.31667" lon="174.96966">
    <ele>637.94</ele>
   </trkpt>
   <trkpt lat="-41.31685" lon="174.96928000000003">
    <ele>630.2</ele>
   </trkpt>
   <trkpt lat="-41.31707" lon="174.96828000000002">
    <ele>625.75</ele>
   </trkpt>
   <trkpt lat="-41.31725" lon="174.96812000000003">
    <ele>619.65</ele>
   </trkpt>
   <trkpt lat="-41.31736" lon="174.96779">
    <ele>613.4900000000001</ele>
   </trkpt>
   <trkpt lat="-41.31761" lon="174.96746000000002">
    <ele>606.48</ele>
   </trkpt>
   <trkpt lat="-41.31765" lon="174.96731000000003">
    <ele>605.08</ele>
   </trkpt>
   <trkpt lat="-41.31774" lon="174.96728000000002">
    <ele>604.57</ele>
   </trkpt>
   <trkpt lat="-41.318070000000006" lon="174.9667">
    <ele>601.44</ele>
   </trkpt>
   <trkpt lat="-41.31821" lon="174.96667000000002">
    <ele>599.5400000000001</ele>
   </trkpt>
   <trkpt lat="-41.31841" lon="174.96654">
    <ele>595.5600000000001</ele>
   </trkpt>
   <trkpt lat="-41.31853" lon="174.96632000000002">
    <ele>591.25</ele>
   </trkpt>
   <trkpt lat="-41.318920000000006" lon="174.96615000000003">
    <ele>582.52</ele>
   </trkpt>
   <trkpt lat="-41.31922" lon="174.96605000000002">
    <ele>576.61</ele>
   </trkpt>
   <trkpt lat="-41.319390000000006" lon="174.96589">
    <ele>575.4200000000001</ele>
   </trkpt>
   <trkpt lat="-41.31971" lon="174.96578000000002">
    <ele>570.55</ele>
   </trkpt>
   <trkpt lat="-41.31982" lon="174.9659">
    <ele>564.7800000000001</ele>
   </trkpt>
   <trkpt lat="-41.32" lon="174.96585000000002">
    <ele>562.12</ele>
   </trkpt>
   <trkpt lat="-41.32023" lon="174.96582">
    <ele>555.32</ele>
   </trkpt>
   <trkpt lat="-41.32034" lon="174.96567000000002">
    <ele>548.7500000000001</ele>
   </trkpt>
   <trkpt lat="-41.32054" lon="174.96567000000002">
    <ele>546.24</ele>
   </trkpt>
   <trkpt lat="-41.3209" lon="174.96543000000003">
    <ele>537.6700000000001</ele>
   </trkpt>
   <trkpt lat="-41.32146" lon="174.96533000000002">
    <ele>520.39</ele>
   </trkpt>
   <trkpt lat="-41.32155" lon="174.96525000000003">
    <ele>520.39</ele>
   </trkpt>
   <trkpt lat="-41.32173" lon="174.96522000000002">
    <ele>515.1999999999999</ele>
   </trkpt>
   <trkpt lat="-41.32179" lon="174.96506000000002">
    <ele>512.54</ele>
   </trkpt>
   <trkpt lat="-41.32193" lon="174.965">
    <ele>510.86000000000007</ele>
   </trkpt>
   <trkpt lat="-41.32211" lon="174.96482">
    <ele>507.18000000000006</ele>
   </trkpt>
   <trkpt lat="-41.32233" lon="174.96476">
    <ele>506.02000000000004</ele>
   </trkpt>
   <trkpt lat="-41.32247" lon="174.96470000000002">
    <ele>505.72</ele>
   </trkpt>
   <trkpt lat="-41.32258" lon="174.96455">
    <ele>504.93</ele>
   </trkpt>
   <trkpt lat="-41.32278" lon="174.96441000000002">
    <ele>502.92</ele>
   </trkpt>
   <trkpt lat="-41.3228" lon="174.96418000000003">
    <ele>501.44</ele>
   </trkpt>
   <trkpt lat="-41.322770000000006" lon="174.96408000000002">
    <ele>498.84000000000003</ele>
   </trkpt>
   <trkpt lat="-41.32296" lon="174.96382000000003">
    <ele>494.11</ele>
   </trkpt>
   <trkpt lat="-41.3232" lon="174.96382000000003">
    <ele>488.22</ele>
   </trkpt>
   <trkpt lat="-41.32325" lon="174.96365">
    <ele>485.17</ele>
   </trkpt>
   <trkpt lat="-41.32325" lon="174.96337000000003">
    <ele>479.19000000000005</ele>
   </trkpt>
   <trkpt lat="-41.32341" lon="174.96306">
    <ele>472.95000000000005</ele>
   </trkpt>
   <trkpt lat="-41.32354" lon="174.96288">
    <ele>466.82</ele>
   </trkpt>
   <trkpt lat="-41.32363" lon="174.96289000000002">
    <ele>465.83</ele>
   </trkpt>
   <trkpt lat="-41.32377" lon="174.96261">
    <ele>460.76000000000005</ele>
   </trkpt>
   <trkpt lat="-41.323780000000006" lon="174.9626">
    <ele>461.01000000000005</ele>
   </trkpt>
   <trkpt lat="-41.32417" lon="174.96210000000002">
    <ele>453.78000000000003</ele>
   </trkpt>
   <trkpt lat="-41.32457" lon="174.96168">
    <ele>449.40000000000003</ele>
   </trkpt>
   <trkpt lat="-41.32475" lon="174.96157000000002">
    <ele>447.93000000000006</ele>
   </trkpt>
   <trkpt lat="-41.32488" lon="174.96146000000002">
    <ele>447.46000000000004</ele>
   </trkpt>
   <trkpt lat="-41.324920000000006" lon="174.96118">
    <ele>448.31000000000006</ele>
   </trkpt>
   <trkpt lat="-41.32522" lon="174.96053">
    <ele>442.06</ele>
   </trkpt>
   <trkpt lat="-41.32524" lon="174.96002000000001">
    <ele>440.88000000000005</ele>
   </trkpt>
   <trkpt lat="-41.32533" lon="174.95993">
    <ele>441.53000000000003</ele>
   </trkpt>
   <trkpt lat="-41.32549" lon="174.95994000000002">
    <ele>441.38000000000005</ele>
   </trkpt>
   <trkpt lat="-41.3258" lon="174.95940000000002">
    <ele>442.72</ele>
   </trkpt>
   <trkpt lat="-41.32611" lon="174.95915000000002">
    <ele>443.24</ele>
   </trkpt>
   <trkpt lat="-41.32618" lon="174.95895000000002">
    <ele>442.83000000000004</ele>
   </trkpt>
   <trkpt lat="-41.32665" lon="174.95825000000002">
    <ele>439.59000000000003</ele>
   </trkpt>
   <trkpt lat="-41.32692" lon="174.95801">
    <ele>437.89000000000004</ele>
   </trkpt>
   <trkpt lat="-41.32721" lon="174.95802">
    <ele>434.08</ele>
   </trkpt>
   <trkpt lat="-41.32753" lon="174.95782000000003">
    <ele>429.89000000000004</ele>
   </trkpt>
   <trkpt lat="-41.32797" lon="174.95714">
    <ele>414.66</ele>
   </trkpt>
   <trkpt lat="-41.32855" lon="174.95714">
    <ele>393.24</ele>
   </trkpt>
   <trkpt lat="-41.32916" lon="174.95693000000003">
    <ele>376.09000000000003</ele>
   </trkpt>
   <trkpt lat="-41.32934" lon="174.95677">
    <ele>373.63</ele>
   </trkpt>
   <trkpt lat="-41.32949" lon="174.95652">
    <ele>367.27000000000004</ele>
   </trkpt>
   <trkpt lat="-41.32985" lon="174.95651">
    <ele>362.16</ele>
   </trkpt>
   <trkpt lat="-41.32999" lon="174.95641">
    <ele>359.14</ele>
   </trkpt>
   <trkpt lat="-41.33028" lon="174.95611000000002">
    <ele>351.05</ele>
   </trkpt>
   <trkpt lat="-41.33057" lon="174.95596">
    <ele>343.49</ele>
   </trkpt>
   <trkpt lat="-41.330920000000006" lon="174.95595">
    <ele>329.68</ele>
   </trkpt>
   <trkpt lat="-41.33102" lon="174.95588">
    <ele>329.68</ele>
   </trkpt>
   <trkpt lat="-41.331210000000006" lon="174.95591000000002">
    <ele>322.81000000000006</ele>
   </trkpt>
   <trkpt lat="-41.33149" lon="174.95578">
    <ele>307.14000000000004</ele>
   </trkpt>
   <trkpt lat="-41.33164" lon="174.95546000000002">
    <ele>294.31</ele>
   </trkpt>
   <trkpt lat="-41.33178" lon="174.95546000000002">
    <ele>286.21000000000004</ele>
   </trkpt>
   <trkpt lat="-41.33189" lon="174.95538000000002">
    <ele>281.91</ele>
   </trkpt>
   <trkpt lat="-41.33214" lon="174.95527">
    <ele>268.28000000000003</ele>
   </trkpt>
   <trkpt lat="-41.3322" lon="174.95503000000002">
    <ele>260.04</ele>
   </trkpt>
   <trkpt lat="-41.33234" lon="174.95489">
    <ele>251.3</ele>
   </trkpt>
   <trkpt lat="-41.33243" lon="174.95472">
    <ele>241.33</ele>
   </trkpt>
   <trkpt lat="-41.33245" lon="174.95460000000003">
    <ele>241.33</ele>
   </trkpt>
   <trkpt lat="-41.33256" lon="174.95435">
    <ele>230.20000000000002</ele>
   </trkpt>
   <trkpt lat="-41.33254" lon="174.95405000000002">
    <ele>217.52</ele>
   </trkpt>
   <trkpt lat="-41.33272" lon="174.95394000000002">
    <ele>209.74</ele>
   </trkpt>
   <trkpt lat="-41.33285" lon="174.95358000000002">
    <ele>197.15</ele>
   </trkpt>
   <trkpt lat="-41.33317" lon="174.95325000000003">
    <ele>182.26</ele>
   </trkpt>
   <trkpt lat="-41.333360000000006" lon="174.95301">
    <ele>173.32</ele>
   </trkpt>
   <trkpt lat="-41.33355" lon="174.95288000000002">
    <ele>167.55</ele>
   </trkpt>
   <trkpt lat="-41.33404" lon="174.95270000000002">
    <ele>163.64000000000001</ele>
   </trkpt>
   <trkpt lat="-41.33424" lon="174.95251000000002">
    <ele>163.69</ele>
   </trkpt>
   <trkpt lat="-41.3346" lon="174.95241000000001">
    <ele>158.35000000000002</ele>
   </trkpt>
   <trkpt lat="-41.33469" lon="174.95223000000001">
    <ele>156.12</ele>
   </trkpt>
   <trkpt lat="-41.3348" lon="174.95207000000002">
    <ele>159.22</ele>
   </trkpt>
   <trkpt lat="-41.33511" lon="174.95196">
    <ele>166.28</ele>
   </trkpt>
   <trkpt lat="-41.33529" lon="174.95201">
    <ele>168.14000000000001</ele>
   </trkpt>
   <trkpt lat="-41.33545" lon="174.95203">
    <ele>168.01000000000002</ele>
   </trkpt>
   <trkpt lat="-41.335620000000006" lon="174.95182000000003">
    <ele>162.27</ele>
   </trkpt>
   <trkpt lat="-41.335710000000006" lon="174.95166">
    <ele>159.37</ele>
   </trkpt>
   <trkpt lat="-41.33587" lon="174.95144000000002">
    <ele>156.84</ele>
   </trkpt>
   <trkpt lat="-41.33619" lon="174.95126000000002">
    <ele>159.60999999999999</ele>
   </trkpt>
   <trkpt lat="-41.3363" lon="174.95107000000002">
    <ele>162.34</ele>
   </trkpt>
   <trkpt lat="-41.33635" lon="174.95085">
    <ele>161.54000000000002</ele>
   </trkpt>
   <trkpt lat="-41.33648" lon="174.95068">
    <ele>161.10000000000002</ele>
   </trkpt>
   <trkpt lat="-41.33659" lon="174.95061">
    <ele>161.49</ele>
   </trkpt>
   <trkpt lat="-41.33675" lon="174.95058">
    <ele>162.53</ele>
   </trkpt>
   <trkpt lat="-41.33699" lon="174.95033">
    <ele>160.55</ele>
   </trkpt>
   <trkpt lat="-41.337210000000006" lon="174.95006">
    <ele>159.63000000000002</ele>
   </trkpt>
   <trkpt lat="-41.33751" lon="174.94992000000002">
    <ele>161.98000000000002</ele>
   </trkpt>
   <trkpt lat="-41.33769" lon="174.94974000000002">
    <ele>160.82999999999998</ele>
   </trkpt>
   <trkpt lat="-41.33776" lon="174.94971">
    <ele>159.96</ele>
   </trkpt>
   <trkpt lat="-41.33793" lon="174.94954">
    <ele>155.5</ele>
   </trkpt>
   <trkpt lat="-41.33825" lon="174.94934">
    <ele>154.43</ele>
   </trkpt>
   <trkpt lat="-41.33849" lon="174.94924">
    <ele>154.08</ele>
   </trkpt>
   <trkpt lat="-41.33863" lon="174.94909">
    <ele>154.64</ele>
   </trkpt>
   <trkpt lat="-41.33878" lon="174.94901000000002">
    <ele>155.75</ele>
   </trkpt>
   <trkpt lat="-41.33881" lon="174.94893000000002">
    <ele>157.23000000000002</ele>
   </trkpt>
   <trkpt lat="-41.338910000000006" lon="174.94873">
    <ele>160.31</ele>
   </trkpt>
   <trkpt lat="-41.3391" lon="174.94859000000002">
    <ele>160.53</ele>
   </trkpt>
   <trkpt lat="-41.33912" lon="174.94851000000003">
    <ele>160.4</ele>
   </trkpt>
   <trkpt lat="-41.33925" lon="174.94833000000003">
    <ele>159.89000000000001</ele>
   </trkpt>
   <trkpt lat="-41.339380000000006" lon="174.94824000000003">
    <ele>159.93</ele>
   </trkpt>
   <trkpt lat="-41.33955" lon="174.94796000000002">
    <ele>162.79000000000002</ele>
   </trkpt>
   <trkpt lat="-41.33975" lon="174.94771">
    <ele>164.70000000000002</ele>
   </trkpt>
   <trkpt lat="-41.34004" lon="174.94738">
    <ele>167.19</ele>
   </trkpt>
   <trkpt lat="-41.34035" lon="174.94673">
    <ele>171.54000000000002</ele>
   </trkpt>
   <trkpt lat="-41.340500000000006" lon="174.94667">
    <ele>170.76000000000002</ele>
   </trkpt>
   <trkpt lat="-41.34069" lon="174.94617000000002">
    <ele>168.28</ele>
   </trkpt>
   <trkpt lat="-41.34069" lon="174.94597000000002">
    <ele>167.19</ele>
   </trkpt>
   <trkpt lat="-41.34075" lon="174.94582000000003">
    <ele>166.92000000000002</ele>
   </trkpt>
   <trkpt lat="-41.3408" lon="174.94542">
    <ele>164.96</ele>
   </trkpt>
   <trkpt lat="-41.340880000000006" lon="174.94538">
    <ele>164.45000000000002</ele>
   </trkpt>
   <trkpt lat="-41.34105" lon="174.94488">
    <ele>163.26000000000002</ele>
   </trkpt>
   <trkpt lat="-41.34118" lon="174.94478">
    <ele>160.72</ele>
   </trkpt>
   <trkpt lat="-41.34136" lon="174.94474000000002">
    <ele>159.13000000000002</ele>
   </trkpt>
   <trkpt lat="-41.34154" lon="174.94457000000003">
    <ele>158.10999999999999</ele>
   </trkpt>
   <trkpt lat="-41.34165" lon="174.94441">
    <ele>157.07000000000002</ele>
   </trkpt>
   <trkpt lat="-41.34176" lon="174.94429000000002">
    <ele>155.87</ele>
   </trkpt>
   <trkpt lat="-41.34201" lon="174.94392000000002">
    <ele>151.13000000000002</ele>
   </trkpt>
   <trkpt lat="-41.342180000000006" lon="174.94377">
    <ele>149.61</ele>
   </trkpt>
   <trkpt lat="-41.3423" lon="174.94369">
    <ele>149.48</ele>
   </trkpt>
   <trkpt lat="-41.3425" lon="174.94346000000002">
    <ele>149.95</ele>
   </trkpt>
   <trkpt lat="-41.34261" lon="174.94337000000002">
    <ele>149.98</ele>
   </trkpt>
   <trkpt lat="-41.34257" lon="174.94334">
    <ele>149.98</ele>
   </trkpt>
   <trkpt lat="-41.342650000000006" lon="174.94329000000002">
    <ele>147.83</ele>
   </trkpt>
   <trkpt lat="-41.34272" lon="174.94288">
    <ele>141.04</ele>
   </trkpt>
   <trkpt lat="-41.34277" lon="174.94271">
    <ele>138.8</ele>
   </trkpt>
   <trkpt lat="-41.34286" lon="174.94262">
    <ele>137.95000000000002</ele>
   </trkpt>
   <trkpt lat="-41.34281" lon="174.94235">
    <ele>136.75</ele>
   </trkpt>
   <trkpt lat="-41.34315" lon="174.94131000000002">
    <ele>125.66000000000003</ele>
   </trkpt>
   <trkpt lat="-41.34313" lon="174.94101">
    <ele>122.8</ele>
   </trkpt>
   <trkpt lat="-41.34317" lon="174.94083">
    <ele>121.58</ele>
   </trkpt>
   <trkpt lat="-41.343410000000006" lon="174.94059000000001">
    <ele>118.99000000000001</ele>
   </trkpt>
   <trkpt lat="-41.34333" lon="174.94038">
    <ele>116.75</ele>
   </trkpt>
   <trkpt lat="-41.34344" lon="174.94004">
    <ele>114.55000000000001</ele>
   </trkpt>
   <trkpt lat="-41.34349" lon="174.93974">
    <ele>110.76</ele>
   </trkpt>
   <trkpt lat="-41.34364" lon="174.93973000000003">
    <ele>108.82000000000001</ele>
   </trkpt>
   <trkpt lat="-41.34369" lon="174.93961000000002">
    <ele>108.65</ele>
   </trkpt>
   <trkpt lat="-41.343500000000006" lon="174.93931">
    <ele>109.6</ele>
   </trkpt>
   <trkpt lat="-41.34353" lon="174.93907000000002">
    <ele>109.08000000000001</ele>
   </trkpt>
   <trkpt lat="-41.34364" lon="174.93895">
    <ele>107.99</ele>
   </trkpt>
   <trkpt lat="-41.343590000000006" lon="174.93844">
    <ele>105.01</ele>
   </trkpt>
   <trkpt lat="-41.34362" lon="174.93800000000002">
    <ele>100.37000000000002</ele>
   </trkpt>
   <trkpt lat="-41.343590000000006" lon="174.93771">
    <ele>98.79</ele>
   </trkpt>
   <trkpt lat="-41.34344" lon="174.93740000000003">
    <ele>96.72000000000001</ele>
   </trkpt>
   <trkpt lat="-41.34351" lon="174.93724">
    <ele>96.21000000000001</ele>
   </trkpt>
   <trkpt lat="-41.34346" lon="174.93698">
    <ele>95.05000000000001</ele>
   </trkpt>
   <trkpt lat="-41.34339000000001" lon="174.93689">
    <ele>94.15</ele>
   </trkpt>
   <trkpt lat="-41.34335" lon="174.93685000000002">
    <ele>93.36000000000001</ele>
   </trkpt>
   <trkpt lat="-41.34304" lon="174.93605000000002">
    <ele>90.45</ele>
   </trkpt>
   <trkpt lat="-41.34281" lon="174.93587000000002">
    <ele>86.62</ele>
   </trkpt>
   <trkpt lat="-41.34266" lon="174.93584">
    <ele>84.9</ele>
   </trkpt>
   <trkpt lat="-41.34279" lon="174.93579000000003">
    <ele>82.22</ele>
   </trkpt>
   <trkpt lat="-41.3429" lon="174.93563">
    <ele>81.23</ele>
   </trkpt>
   <trkpt lat="-41.34284" lon="174.93479000000002">
    <ele>77.30000000000001</ele>
   </trkpt>
   <trkpt lat="-41.34295" lon="174.93449">
    <ele>78.15</ele>
   </trkpt>
   <trkpt lat="-41.34306" lon="174.93444000000002">
    <ele>78.62</ele>
   </trkpt>
   <trkpt lat="-41.34319" lon="174.93426000000002">
    <ele>78.86</ele>
   </trkpt>
   <trkpt lat="-41.34346" lon="174.93365000000003">
    <ele>78.59</ele>
   </trkpt>
   <trkpt lat="-41.34357000000001" lon="174.93347000000003">
    <ele>77.64</ele>
   </trkpt>
   <trkpt lat="-41.34384" lon="174.93333">
    <ele>80.59</ele>
   </trkpt>
   <trkpt lat="-41.34409" lon="174.93287">
    <ele>77.85</ele>
   </trkpt>
   <trkpt lat="-41.34445" lon="174.93255000000002">
    <ele>74.61000000000001</ele>
   </trkpt>
   <trkpt lat="-41.34463" lon="174.93231">
    <ele>73.66</ele>
   </trkpt>
   <trkpt lat="-41.34478" lon="174.93196">
    <ele>73.09</ele>
   </trkpt>
   <trkpt lat="-41.34478" lon="174.93188">
    <ele>72.33</ele>
   </trkpt>
   <trkpt lat="-41.34523" lon="174.93166000000002">
    <ele>68.85000000000001</ele>
   </trkpt>
   <trkpt lat="-41.34543" lon="174.9317">
    <ele>67.52000000000001</ele>
   </trkpt>
   <trkpt lat="-41.345850000000006" lon="174.93144">
    <ele>68.06</ele>
   </trkpt>
   <trkpt lat="-41.34615" lon="174.93105000000003">
    <ele>69.20000000000002</ele>
   </trkpt>
   <trkpt lat="-41.34646" lon="174.93085000000002">
    <ele>67.49000000000001</ele>
   </trkpt>
   <trkpt lat="-41.3466" lon="174.93057000000002">
    <ele>66.66000000000001</ele>
   </trkpt>
   <trkpt lat="-41.3468" lon="174.93042000000003">
    <ele>64.87</ele>
   </trkpt>
   <trkpt lat="-41.3472" lon="174.92985000000002">
    <ele>67.64</ele>
   </trkpt>
   <trkpt lat="-41.34736" lon="174.92979000000003">
    <ele>67.42</ele>
   </trkpt>
   <trkpt lat="-41.34781" lon="174.92941000000002">
    <ele>63.25</ele>
   </trkpt>
   <trkpt lat="-41.34780000000001" lon="174.92932000000002">
    <ele>62.90000000000001</ele>
   </trkpt>
   <trkpt lat="-41.3477" lon="174.92912">
    <ele>62.63</ele>
   </trkpt>
   <trkpt lat="-41.347390000000004" lon="174.92837">
    <ele>62.36000000000001</ele>
   </trkpt>
   <trkpt lat="-41.34745" lon="174.9282">
    <ele>62.36000000000001</ele>
   </trkpt>
   <trkpt lat="-41.34747" lon="174.92743000000002">
    <ele>64.52000000000001</ele>
   </trkpt>
   <trkpt lat="-41.34756" lon="174.92669">
    <ele>65.5</ele>
   </trkpt>
   <trkpt lat="-41.347680000000004" lon="174.9264">
    <ele>66.63000000000001</ele>
   </trkpt>
   <trkpt lat="-41.34769" lon="174.9264">
    <ele>66.65</ele>
   </trkpt>
   <trkpt lat="-41.34776" lon="174.92621000000003">
    <ele>67.13000000000001</ele>
   </trkpt>
   <trkpt lat="-41.3481" lon="174.92581">
    <ele>68.47</ele>
   </trkpt>
   <trkpt lat="-41.34872" lon="174.92559000000003">
    <ele>65.56</ele>
   </trkpt>
   <trkpt lat="-41.349340000000005" lon="174.92555000000002">
    <ele>65.0</ele>
   </trkpt>
   <trkpt lat="-41.34964" lon="174.92579">
    <ele>59.45</ele>
   </trkpt>
   <trkpt lat="-41.35014" lon="174.92593000000002">
    <ele>53.45</ele>
   </trkpt>
   <trkpt lat="-41.35027" lon="174.92572">
    <ele>52.96000000000001</ele>
   </trkpt>
   <trkpt lat="-41.35045" lon="174.92493000000002">
    <ele>51.64000000000001</ele>
   </trkpt>
   <trkpt lat="-41.35047" lon="174.92465">
    <ele>51.79</ele>
   </trkpt>
   <trkpt lat="-41.35047" lon="174.92432000000002">
    <ele>52.21000000000001</ele>
   </trkpt>
   <trkpt lat="-41.35051" lon="174.92401">
    <ele>53.980000000000004</ele>
   </trkpt>
   <trkpt lat="-41.3506" lon="174.92372">
    <ele>54.690000000000005</ele>
   </trkpt>
   <trkpt lat="-41.350730000000006" lon="174.92338">
    <ele>55.370000000000005</ele>
   </trkpt>
   <trkpt lat="-41.35087" lon="174.92306000000002">
    <ele>55.43000000000001</ele>
   </trkpt>
   <trkpt lat="-41.35101" lon="174.92286000000001">
    <ele>54.8</ele>
   </trkpt>
   <trkpt lat="-41.35114" lon="174.92270000000002">
    <ele>53.87</ele>
   </trkpt>
   <trkpt lat="-41.35159" lon="174.92233000000002">
    <ele>50.760000000000005</ele>
   </trkpt>
   <trkpt lat="-41.35201" lon="174.92191000000003">
    <ele>48.95</ele>
   </trkpt>
   <trkpt lat="-41.35215" lon="174.92165000000003">
    <ele>48.52</ele>
   </trkpt>
   <trkpt lat="-41.352430001539915" lon="174.92107500224944">
    <ele>48.67</ele>
   </trkpt>
   <trkpt lat="-41.35271" lon="174.9205">
    <ele>47.52</ele>
   </trkpt>
   <trkpt lat="-41.3528" lon="174.92015">
    <ele>46.790000000000006</ele>
   </trkpt>
   <trkpt lat="-41.35291" lon="174.91963">
    <ele>46.03</ele>
   </trkpt>
   <trkpt lat="-41.35302" lon="174.91891">
    <ele>45.62</ele>
   </trkpt>
   <trkpt lat="-41.35302" lon="174.9189">
    <ele>45.62</ele>
   </trkpt>
   <trkpt lat="-41.35313" lon="174.91832000000002">
    <ele>45.19</ele>
   </trkpt>
   <trkpt lat="-41.35322" lon="174.91804000000002">
    <ele>44.370000000000005</ele>
   </trkpt>
   <trkpt lat="-41.353350000000006" lon="174.91782">
    <ele>44.370000000000005</ele>
   </trkpt>
   <trkpt lat="-41.35365" lon="174.91745">
    <ele>43.35000000000001</ele>
   </trkpt>
   <trkpt lat="-41.3541" lon="174.91712">
    <ele>42.39</ele>
   </trkpt>
   <trkpt lat="-41.3545" lon="174.91654000000003">
    <ele>43.77</ele>
   </trkpt>
   <trkpt lat="-41.35477" lon="174.91588000000002">
    <ele>43.910000000000004</ele>
   </trkpt>
   <trkpt lat="-41.35505000125101" lon="174.91535000221313">
    <ele>42.92000000000001</ele>
   </trkpt>
   <trkpt lat="-41.35533" lon="174.91482000000002">
    <ele>41.220000000000006</ele>
   </trkpt>
   <trkpt lat="-41.35537" lon="174.91459">
    <ele>40.42</ele>
   </trkpt>
   <trkpt lat="-41.35539" lon="174.91426">
    <ele>39.150000000000006</ele>
   </trkpt>
   <trkpt lat="-41.35533" lon="174.91405">
    <ele>38.790000000000006</ele>
   </trkpt>
   <trkpt lat="-41.3549" lon="174.91345">
    <ele>36.95</ele>
   </trkpt>
   <trkpt lat="-41.354780000000005" lon="174.91322000000002">
    <ele>36.71</ele>
   </trkpt>
   <trkpt lat="-41.35475" lon="174.91274">
    <ele>35.94</ele>
   </trkpt>
   <trkpt lat="-41.35475" lon="174.91227">
    <ele>35.74</ele>
   </trkpt>
   <trkpt lat="-41.35446" lon="174.91156">
    <ele>35.13</ele>
   </trkpt>
   <trkpt lat="-41.35439" lon="174.91184">
    <ele>36.85</ele>
   </trkpt>
   <trkpt lat="-41.35445" lon="174.91229">
    <ele>38.1</ele>
   </trkpt>
   <trkpt lat="-41.354580000000006" lon="174.91282">
    <ele>38.720000000000006</ele>
   </trkpt>
  </trkseg>
 </trk>
</gpx>
